{
  "type": "FeatureCollection",
  "name": "Gumgaon lease boundary",
  "features": [
    {
      "type": "Feature",
      "properties": {
        "lease_name": "Gumgaon-Khodegaon-Tegai Manganese Ore Mine",
        "operator": "MOIL Limited",
        "district": "Nagpur",
        "state": "Maharashtra",
        "pillar_count": 126,
        "pfr_title_area_ha": 126.84,
        "pfr_land_detail_area_ha": 126.46,
        "dgm_register_area_ha": 126.84,
        "computed_geodesic_area_ha": 155.233,
        "geometry_status": "PFR applicant-reported boundary; verify against approved DGPS/cadastral plan before legal or resource use",
        "provenance": "DERIVED",
        "method": "Converted the report's DMS boundary pillars to decimal degrees, sorted BP1-BP126 by pillar number, linked them in that order, and closed the ring; computed geodesic area on the WGS84 ellipsoid.",
        "source_ref": "MOIL_Gumgaon_Khodegaon_Tegai_PFR_2017.pdf; PDF pages 6-7, 'Co-ordinates of the Mining Lease area' and page 7 'Land Detail'; https://environmentclearance.nic.in/writereaddata/Online/TOR/01_Aug_2017_113719740WC70Q0QJPFR.pdf; retrieved 2026-09-29 | DGM register: maharashtra_working_major_mineral_leases_2025.pdf; page 1, table 'LIST OF WORKING MINING LEASES FOR MAJOR MINERALS AS ON 01.04.2025'; https://mahadgm.gov.in/writereaddata/fckimagefile/WORKING%20MINE%20LIST%20%20Major%20minerals.pdf; retrieved 2026-09-29"
      },
      "geometry": {
        "type": "Polygon",
        "coordinates": [
          [
            [
              78.98543333333333,
              21.403427777777775
            ],
            [
              78.98632500000001,
              21.403411111111108
            ],
            [
              78.9884175,
              21.40118611111111
            ],
            [
              78.98900277777778,
              21.40194722222222
            ],
            [
              78.98878055555555,
              21.402047222222222
            ],
            [
              78.9888,
              21.40229722222222
            ],
            [
              78.98874444444445,
              21.40252222222222
            ],
            [
              78.98884722222222,
              21.402844444444444
            ],
            [
              78.98891388888889,
              21.402863888888888
            ],
            [
              78.98949722222223,
              21.40281111111111
            ],
            [
              78.98966111111112,
              21.40298888888889
            ],
            [
              78.98993888888889,
              21.403066666666664
            ],
            [
              78.99022222222223,
              21.403208333333332
            ],
            [
              78.99029444444444,
              21.403338888888886
            ],
            [
              78.99146944444445,
              21.403299999999998
            ],
            [
              78.99183055555555,
              21.402519444444444
            ],
            [
              78.99247222222222,
              21.402458333333332
            ],
            [
              78.99254166666667,
              21.401738888888886
            ],
            [
              78.99301944444444,
              21.401491666666665
            ],
            [
              78.99320833333333,
              21.400783333333333
            ],
            [
              78.99358333333333,
              21.400475
            ],
            [
              78.99361944444445,
              21.40008611111111
            ],
            [
              78.99435,
              21.39965
            ],
            [
              78.99471944444444,
              21.39881111111111
            ],
            [
              78.99445555555556,
              21.398711111111112
            ],
            [
              78.99393888888889,
              21.398883333333334
            ],
            [
              78.99391666666666,
              21.39847222222222
            ],
            [
              78.99335,
              21.39848611111111
            ],
            [
              78.99283333333334,
              21.39786388888889
            ],
            [
              78.99284166666666,
              21.397677777777776
            ],
            [
              78.99223611111111,
              21.397719444444444
            ],
            [
              78.99209722222223,
              21.398144444444444
            ],
            [
              78.99202222222222,
              21.398038888888887
            ],
            [
              78.99207777777778,
              21.400105555555555
            ],
            [
              78.99134166666667,
              21.40011388888889
            ],
            [
              78.9908638888889,
              21.399058333333333
            ],
            [
              78.990575,
              21.39943611111111
            ],
            [
              78.98874722222223,
              21.399183333333333
            ],
            [
              78.98828055555556,
              21.399327777777778
            ],
            [
              78.98800555555556,
              21.39978888888889
            ],
            [
              78.98759722222222,
              21.3993
            ],
            [
              78.98719166666666,
              21.399297222222224
            ],
            [
              78.98648888888889,
              21.399094444444444
            ],
            [
              78.98621666666666,
              21.39948611111111
            ],
            [
              78.98625833333334,
              21.39853888888889
            ],
            [
              78.98525833333333,
              21.398866666666667
            ],
            [
              78.98496944444445,
              21.398783333333334
            ],
            [
              78.984325,
              21.39853888888889
            ],
            [
              78.98421111111111,
              21.39815
            ],
            [
              78.98364444444445,
              21.398016666666667
            ],
            [
              78.98187222222222,
              21.39868611111111
            ],
            [
              78.98156388888889,
              21.397330555555556
            ],
            [
              78.981425,
              21.39737222222222
            ],
            [
              78.98017222222222,
              21.397130555555556
            ],
            [
              78.9777,
              21.398263888888888
            ],
            [
              78.97754722222223,
              21.3985
            ],
            [
              78.97765555555556,
              21.399130555555555
            ],
            [
              78.97748333333334,
              21.399227777777778
            ],
            [
              78.97695,
              21.399127777777778
            ],
            [
              78.976325,
              21.39844722222222
            ],
            [
              78.97566111111111,
              21.398877777777777
            ],
            [
              78.97495,
              21.396355555555555
            ],
            [
              78.97234722222223,
              21.396908333333332
            ],
            [
              78.97214166666667,
              21.396430555555554
            ],
            [
              78.97081944444444,
              21.396955555555554
            ],
            [
              78.97073333333334,
              21.397972222222222
            ],
            [
              78.97080277777778,
              21.399147222222222
            ],
            [
              78.97216388888889,
              21.400263888888887
            ],
            [
              78.97122777777778,
              21.40152222222222
            ],
            [
              78.97046388888889,
              21.402452777777775
            ],
            [
              78.97372222222222,
              21.403252777777777
            ],
            [
              78.97382222222222,
              21.40236388888889
            ],
            [
              78.97549722222223,
              21.402158333333333
            ],
            [
              78.97561388888889,
              21.401441666666667
            ],
            [
              78.975975,
              21.40137222222222
            ],
            [
              78.97647777777777,
              21.400525
            ],
            [
              78.97655277777778,
              21.401255555555554
            ],
            [
              78.97679722222223,
              21.40176111111111
            ],
            [
              78.97669166666667,
              21.401980555555554
            ],
            [
              78.97729722222222,
              21.402158333333333
            ],
            [
              78.97733333333333,
              21.401858333333333
            ],
            [
              78.977025,
              21.40065
            ],
            [
              78.97774166666667,
              21.399858333333334
            ],
            [
              78.97957777777778,
              21.39965833333333
            ],
            [
              78.98126111111111,
              21.399016666666665
            ],
            [
              78.98226111111111,
              21.399616666666667
            ],
            [
              78.9832888888889,
              21.39961388888889
            ],
            [
              78.98371388888889,
              21.39984722222222
            ],
            [
              78.98418333333333,
              21.40001111111111
            ],
            [
              78.98455,
              21.401955555555553
            ],
            [
              78.98538888888889,
              21.401774999999997
            ],
            [
              78.97683055555555,
              21.404508333333332
            ],
            [
              78.97553888888889,
              21.404349999999997
            ],
            [
              78.9737638888889,
              21.40375
            ],
            [
              78.97023055555556,
              21.403488888888887
            ],
            [
              78.96581111111111,
              21.40291111111111
            ],
            [
              78.96488055555555,
              21.40046111111111
            ],
            [
              78.96396111111112,
              21.397761111111112
            ],
            [
              78.96198611111112,
              21.397761111111112
            ],
            [
              78.96147500000001,
              21.396338888888888
            ],
            [
              78.95889444444445,
              21.39662222222222
            ],
            [
              78.95919444444445,
              21.40005
            ],
            [
              78.96102777777779,
              21.401397222222222
            ],
            [
              78.96128888888889,
              21.40206111111111
            ],
            [
              78.96221111111112,
              21.402291666666667
            ],
            [
              78.96323333333333,
              21.404352777777778
            ],
            [
              78.96502222222223,
              21.403994444444443
            ],
            [
              78.96513055555556,
              21.404574999999998
            ],
            [
              78.96643611111111,
              21.40434722222222
            ],
            [
              78.9673138888889,
              21.40468611111111
            ],
            [
              78.96751666666667,
              21.404677777777778
            ],
            [
              78.96785,
              21.404474999999998
            ],
            [
              78.96805277777779,
              21.404291666666666
            ],
            [
              78.96850277777779,
              21.404038888888888
            ],
            [
              78.96905833333334,
              21.40365
            ],
            [
              78.96978055555556,
              21.404202777777776
            ],
            [
              78.96985555555555,
              21.4054
            ],
            [
              78.97204722222223,
              21.405263888888886
            ],
            [
              78.9721,
              21.40576944444444
            ],
            [
              78.97365277777779,
              21.40564722222222
            ],
            [
              78.97378055555556,
              21.40548611111111
            ],
            [
              78.97400277777778,
              21.405488888888886
            ],
            [
              78.97465833333334,
              21.406758333333332
            ],
            [
              78.9758,
              21.40666111111111
            ],
            [
              78.97651388888889,
              21.405805555555553
            ],
            [
              78.97621111111111,
              21.405302777777777
            ],
            [
              78.98543333333333,
              21.403427777777775
            ]
          ]
        ]
      }
    }
  ]
}