{"type": "FeatureCollection", "features": [{"type": "Feature", "properties": {"block": "Western Ukwa", "nuid": "CRO-23290-2016", "source": "gdb", "borehole": "UKH-7", "collar_rl_m": 601.668, "total_depth_m": 220.45, "toposheet": "64C05", "source_rl": "workbook"}, "geometry": {"type": "Point", "coordinates": [80.44604842700005, 21.971641986000066]}}, {"type": "Feature", "properties": {"block": "Western Ukwa", "nuid": "CRO-23290-2016", "source": "gdb", "borehole": "UKBH-5", "collar_rl_m": 602.066, "total_depth_m": 200.0, "toposheet": "64C05", "source_rl": "workbook"}, "geometry": {"type": "Point", "coordinates": [80.44703669500007, 21.97206701600004]}}, {"type": "Feature", "properties": {"block": "Western Ukwa", "nuid": "CRO-23290-2016", "source": "gdb", "borehole": "UKH-4", "collar_rl_m": 602.489, "total_depth_m": 209.5, "toposheet": "64C05", "source_rl": "workbook"}, "geometry": {"type": "Point", "coordinates": [80.44825382600004, 21.97232931600007]}}, {"type": "Feature", "properties": {"block": "Western Ukwa", "nuid": "CRO-23290-2016", "source": "gdb", "borehole": "GSU-31", "collar_rl_m": 598.83, "total_depth_m": 71.05, "toposheet": "64C05", "source_rl": "workbook"}, "geometry": {"type": "Point", "coordinates": [80.44810224200006, 21.969454420000034]}}, {"type": "Feature", "properties": {"block": "Western Ukwa", "nuid": "CRO-23290-2016", "source": "gdb", "borehole": "UKH-5", "collar_rl_m": NaN, "total_depth_m": NaN, "toposheet": "64C05", "source_rl": NaN}, "geometry": {"type": "Point", "coordinates": [80.44646751200008, 21.967660674000058]}}, {"type": "Feature", "properties": {"block": "Western Ukwa", "nuid": "CRO-23290-2016", "source": "gdb", "borehole": "GSU-30", "collar_rl_m": 599.68, "total_depth_m": 43.0, "toposheet": "64C05", "source_rl": "workbook"}, "geometry": {"type": "Point", "coordinates": [80.44881558000003, 21.968684610000025]}}, {"type": "Feature", "properties": {"block": "Western Ukwa", "nuid": "CRO-23290-2016", "source": "gdb", "borehole": "UKBH-1", "collar_rl_m": 600.06, "total_depth_m": 113.35, "toposheet": "64C05", "source_rl": "workbook"}, "geometry": {"type": "Point", "coordinates": [80.44851389800004, 21.97038918800007]}}, {"type": "Feature", "properties": {"block": "Western Ukwa", "nuid": "CRO-23290-2016", "source": "gdb", "borehole": "UKBH-2", "collar_rl_m": 603.066, "total_depth_m": 116.0, "toposheet": "64C05", "source_rl": "workbook"}, "geometry": {"type": "Point", "coordinates": [80.45012039200003, 21.972003113000028]}}, {"type": "Feature", "properties": {"block": "Western Ukwa", "nuid": "CRO-23290-2016", "source": "gdb", "borehole": "GUG-2", "collar_rl_m": 600.81, "total_depth_m": 105.9, "toposheet": "64C05", "source_rl": "workbook"}, "geometry": {"type": "Point", "coordinates": [80.44910983100004, 21.97124816400003]}}, {"type": "Feature", "properties": {"block": "Western Ukwa", "nuid": "CRO-23290-2016", "source": "gdb", "borehole": "GSu-29", "collar_rl_m": NaN, "total_depth_m": NaN, "toposheet": "64C05", "source_rl": NaN}, "geometry": {"type": "Point", "coordinates": [80.45026603100007, 21.96982557700005]}}, {"type": "Feature", "properties": {"block": "Western Ukwa", "nuid": "CRO-23290-2016", "source": "gdb", "borehole": "UKBH-4", "collar_rl_m": 599.313, "total_depth_m": 254.0, "toposheet": "64C05", "source_rl": "workbook"}, "geometry": {"type": "Point", "coordinates": [80.44872901300005, 21.97369877400007]}}, {"type": "Feature", "properties": {"block": "Western Ukwa", "nuid": "CRO-23290-2016", "source": "gdb", "borehole": "UKH-14", "collar_rl_m": 598.709, "total_depth_m": 243.65, "toposheet": "64C05", "source_rl": "workbook"}, "geometry": {"type": "Point", "coordinates": [80.45063607500003, 21.97392392100005]}}, {"type": "Feature", "properties": {"block": "Western Ukwa", "nuid": "CRO-23290-2016", "source": "gdb", "borehole": "UKH-3", "collar_rl_m": 599.484, "total_depth_m": 205.25, "toposheet": "64C05", "source_rl": "workbook"}, "geometry": {"type": "Point", "coordinates": [80.45092029500006, 21.97346471000003]}}, {"type": "Feature", "properties": {"block": "Western Ukwa", "nuid": "CRO-23290-2016", "source": "gdb", "borehole": "GSU-27", "collar_rl_m": 602.19, "total_depth_m": 101.0, "toposheet": "64C05", "source_rl": "workbook"}, "geometry": {"type": "Point", "coordinates": [80.45181642400007, 21.972046953000074]}}, {"type": "Feature", "properties": {"block": "Western Ukwa", "nuid": "CRO-23290-2016", "source": "gdb", "borehole": "GSU-26", "collar_rl_m": 602.99, "total_depth_m": 54.0, "toposheet": "64C05", "source_rl": "workbook"}, "geometry": {"type": "Point", "coordinates": [80.45230907300004, 21.97126451200006]}}, {"type": "Feature", "properties": {"block": "Western Ukwa", "nuid": "CRO-23290-2016", "source": "gdb", "borehole": "UKBH-3", "collar_rl_m": 601.208, "total_depth_m": 128.0, "toposheet": "64C05", "source_rl": "workbook"}, "geometry": {"type": "Point", "coordinates": [80.45278277300008, 21.972839426000064]}}, {"type": "Feature", "properties": {"block": "Western Ukwa", "nuid": "CRO-23290-2016", "source": "gdb", "borehole": "GSU-21", "collar_rl_m": 607.17, "total_depth_m": 71.6, "toposheet": "64C05", "source_rl": "workbook"}, "geometry": {"type": "Point", "coordinates": [80.45475169400004, 21.971946083000034]}}, {"type": "Feature", "properties": {"block": "Western Ukwa", "nuid": "CRO-23290-2016", "source": "gdb", "borehole": "UKH-2", "collar_rl_m": NaN, "total_depth_m": NaN, "toposheet": "64C05", "source_rl": NaN}, "geometry": {"type": "Point", "coordinates": [80.45636840500003, 21.974533601000076]}}, {"type": "Feature", "properties": {"block": "Western Ukwa", "nuid": "CRO-23290-2016", "source": "gdb", "borehole": "GUG-1", "collar_rl_m": NaN, "total_depth_m": NaN, "toposheet": "64C05", "source_rl": NaN}, "geometry": {"type": "Point", "coordinates": [80.45550125500006, 21.97389382700004]}}, {"type": "Feature", "properties": {"block": "Western Ukwa", "nuid": "CRO-23290-2016", "source": "gdb", "borehole": "GSU-14", "collar_rl_m": NaN, "total_depth_m": NaN, "toposheet": "64C05", "source_rl": NaN}, "geometry": {"type": "Point", "coordinates": [80.45679640700007, 21.973419012000022]}}, {"type": "Feature", "properties": {"block": "Western Ukwa", "nuid": "CRO-23290-2016", "source": "gdb", "borehole": "GSU-12", "collar_rl_m": NaN, "total_depth_m": NaN, "toposheet": "64C05", "source_rl": NaN}, "geometry": {"type": "Point", "coordinates": [80.45714750300004, 21.972500591000028]}}, {"type": "Feature", "properties": {"block": "Western Ukwa", "nuid": "CRO-23290-2016", "source": "gdb", "borehole": "UKH-17", "collar_rl_m": NaN, "total_depth_m": NaN, "toposheet": "64C05", "source_rl": NaN}, "geometry": {"type": "Point", "coordinates": [80.45561940200008, 21.97655323600003]}}, {"type": "Feature", "properties": {"block": "Western Ukwa", "nuid": "CRO-23290-2016", "source": "gdb", "borehole": "UKBH-6", "collar_rl_m": 599.837, "total_depth_m": 260.0, "toposheet": "64C05", "source_rl": "workbook"}, "geometry": {"type": "Point", "coordinates": [80.45149096400007, 21.974904759000026]}}, {"type": "Feature", "properties": {"block": "Western Ukwa", "nuid": "CRO-23290-2016", "source": "gdb", "borehole": "UKH-1", "collar_rl_m": NaN, "total_depth_m": NaN, "toposheet": "64C05", "source_rl": NaN}, "geometry": {"type": "Point", "coordinates": [80.45807707000006, 21.976943343000073]}}, {"type": "Feature", "properties": {"block": "Western Ukwa", "nuid": "CRO-23290-2016", "source": "gdb", "borehole": "UKH-13", "collar_rl_m": NaN, "total_depth_m": NaN, "toposheet": "64C05", "source_rl": NaN}, "geometry": {"type": "Point", "coordinates": [80.45836463400008, 21.976175391000027]}}, {"type": "Feature", "properties": {"block": "Western Ukwa", "nuid": "CRO-23290-2016", "source": "gdb", "borehole": "GSU-32", "collar_rl_m": NaN, "total_depth_m": NaN, "toposheet": "64C05", "source_rl": NaN}, "geometry": {"type": "Point", "coordinates": [80.45884836500005, 21.974923707000073]}}, {"type": "Feature", "properties": {"block": "Western Ukwa", "nuid": "CRO-23290-2016", "source": "gdb", "borehole": "GSU-18", "collar_rl_m": NaN, "total_depth_m": NaN, "toposheet": "64C05", "source_rl": NaN}, "geometry": {"type": "Point", "coordinates": [80.45915933500004, 21.974112287000025]}}, {"type": "Feature", "properties": {"block": "Western Ukwa", "nuid": "CRO-23290-2016", "source": "gdb", "borehole": "GSU-35", "collar_rl_m": NaN, "total_depth_m": NaN, "toposheet": "64C05", "source_rl": NaN}, "geometry": {"type": "Point", "coordinates": [80.46069969800004, 21.975469856000075]}}, {"type": "Feature", "properties": {"block": "Western Ukwa", "nuid": "CRO-23290-2016", "source": "gdb", "borehole": "GSU-33", "collar_rl_m": NaN, "total_depth_m": NaN, "toposheet": "64C05", "source_rl": NaN}, "geometry": {"type": "Point", "coordinates": [80.46203386100007, 21.97371660700003]}}, {"type": "Feature", "properties": {"block": "Western Ukwa", "nuid": "CRO-23290-2016", "source": "gdb", "borehole": "GSU-37", "collar_rl_m": NaN, "total_depth_m": NaN, "toposheet": "64C05", "source_rl": NaN}, "geometry": {"type": "Point", "coordinates": [80.46290547000007, 21.97555010700006]}}, {"type": "Feature", "properties": {"block": "Western Ukwa", "nuid": "CRO-23290-2016", "source": "gdb", "borehole": "UKH-16", "collar_rl_m": 601.176, "total_depth_m": 245.2, "toposheet": "64C05", "source_rl": "workbook"}, "geometry": {"type": "Point", "coordinates": [80.45339914000004, 21.974713050000048]}}, {"type": "Feature", "properties": {"block": "Western Ukwa", "nuid": "CRO-23290-2016", "source": "gdb", "borehole": "UKH-6", "collar_rl_m": NaN, "total_depth_m": NaN, "toposheet": "64C05", "source_rl": NaN}, "geometry": {"type": "Point", "coordinates": [80.44547664200007, 21.968819104000033]}}, {"type": "Feature", "properties": {"block": "Western Ukwa", "nuid": "CRO-23290-2016", "source": "gdb", "borehole": "GSU-34", "collar_rl_m": 601.74, "total_depth_m": 169.8, "toposheet": "64C05", "source_rl": "workbook"}, "geometry": {"type": "Point", "coordinates": [80.45399098700005, 21.97351040800004]}}, {"type": "Feature", "properties": {"block": "Western Ukwa", "nuid": "CRO-23290-2016", "source": "gdb", "borehole": "GSU-24", "collar_rl_m": 604.1, "total_depth_m": 129.85, "toposheet": "64C05", "source_rl": "workbook"}, "geometry": {"type": "Point", "coordinates": [80.45429861400004, 21.972873979000042]}}, {"type": "Feature", "properties": {"block": "Western Ukwa", "nuid": "CRO-23290-2016", "source": "gdb", "borehole": "CF-1", "collar_rl_m": NaN, "total_depth_m": NaN, "toposheet": "64C05", "source_rl": NaN}, "geometry": {"type": "Point", "coordinates": [80.46099617800007, 21.97544645000005]}}, {"type": "Feature", "properties": {"block": "Western Ukwa", "nuid": "CRO-23290-2016", "source": "gdb", "borehole": "M-18", "collar_rl_m": NaN, "total_depth_m": NaN, "toposheet": "64C05", "source_rl": NaN}, "geometry": {"type": "Point", "coordinates": [80.46201992800007, 21.975026806000074]}}, {"type": "Feature", "properties": {"block": "Western Ukwa", "nuid": "CRO-23290-2016", "source": "gdb", "borehole": "CF-8", "collar_rl_m": NaN, "total_depth_m": NaN, "toposheet": "64C05", "source_rl": NaN}, "geometry": {"type": "Point", "coordinates": [80.45944355600005, 21.976732128000037]}}, {"type": "Feature", "properties": {"block": "Gudma", "nuid": "CRO-23394-2017", "source": "gdb", "borehole": "GDBH-1", "collar_rl_m": 597.0, "total_depth_m": NaN, "toposheet": "64C/05", "source_rl": NaN}, "geometry": {"type": "Point", "coordinates": [80.44508913300007, 21.967269876000046]}}, {"type": "Feature", "properties": {"block": "Gudma", "nuid": "CRO-23394-2017", "source": "gdb", "borehole": "GDBH-2", "collar_rl_m": 595.0, "total_depth_m": NaN, "toposheet": "64C/05", "source_rl": NaN}, "geometry": {"type": "Point", "coordinates": [80.44425725200006, 21.96652902200003]}}, {"type": "Feature", "properties": {"block": "Gudma", "nuid": "CRO-23394-2017", "source": "gdb", "borehole": "GDBH-3", "collar_rl_m": 597.0, "total_depth_m": NaN, "toposheet": "64C/05", "source_rl": NaN}, "geometry": {"type": "Point", "coordinates": [80.44421173900008, 21.96804107300005]}}, {"type": "Feature", "properties": {"block": "Gudma", "nuid": "CRO-23394-2017", "source": "gdb", "borehole": "GDBH-4", "collar_rl_m": 596.0, "total_depth_m": NaN, "toposheet": "64C/05", "source_rl": NaN}, "geometry": {"type": "Point", "coordinates": [80.44351892600008, 21.967242062000025]}}, {"type": "Feature", "properties": {"block": "Gudma", "nuid": "CRO-23394-2017", "source": "gdb", "borehole": "GDBH-5", "collar_rl_m": 594.0, "total_depth_m": NaN, "toposheet": "64C/05", "source_rl": NaN}, "geometry": {"type": "Point", "coordinates": [80.44318010600006, 21.96595757800003]}}, {"type": "Feature", "properties": {"block": "Gudma", "nuid": "CRO-23394-2017", "source": "gdb", "borehole": "GDBH-6", "collar_rl_m": 592.6, "total_depth_m": NaN, "toposheet": "64C/05", "source_rl": NaN}, "geometry": {"type": "Point", "coordinates": [80.44226478400003, 21.965209138000034]}}, {"type": "Feature", "properties": {"block": "Gudma", "nuid": "CRO-23394-2017", "source": "gdb", "borehole": "GDBH-7", "collar_rl_m": 589.7, "total_depth_m": NaN, "toposheet": "64C/05", "source_rl": NaN}, "geometry": {"type": "Point", "coordinates": [80.44093478600007, 21.96377547000003]}}, {"type": "Feature", "properties": {"block": "Gudma", "nuid": "CRO-23394-2017", "source": "gdb", "borehole": "UKBH-1", "collar_rl_m": NaN, "total_depth_m": NaN, "toposheet": "64C/05", "source_rl": NaN}, "geometry": {"type": "Point", "coordinates": [80.44850262600005, 21.97031673500004]}}, {"type": "Feature", "properties": {"block": "Gudma", "nuid": "CRO-23394-2017", "source": "gdb", "borehole": "UKH-5", "collar_rl_m": NaN, "total_depth_m": NaN, "toposheet": "64C/05", "source_rl": NaN}, "geometry": {"type": "Point", "coordinates": [80.44657084200009, 21.967588469000077]}}, {"type": "Feature", "properties": {"block": "Gudma", "nuid": "CRO-23394-2017", "source": "gdb", "borehole": "UKBH-5", "collar_rl_m": NaN, "total_depth_m": NaN, "toposheet": "64C/05", "source_rl": NaN}, "geometry": {"type": "Point", "coordinates": [80.44709171600005, 21.972048767000047]}}, {"type": "Feature", "properties": {"block": "Gudma", "nuid": "CRO-23394-2017", "source": "gdb", "borehole": "UKH-6", "collar_rl_m": NaN, "total_depth_m": NaN, "toposheet": "64C/05", "source_rl": NaN}, "geometry": {"type": "Point", "coordinates": [80.44557460800007, 21.96871618600005]}}, {"type": "Feature", "properties": {"block": "Gudma", "nuid": "CRO-23394-2017", "source": "gdb", "borehole": "UKH-7", "collar_rl_m": NaN, "total_depth_m": NaN, "toposheet": "64C/05", "source_rl": NaN}, "geometry": {"type": "Point", "coordinates": [80.44601456900006, 21.971639147000076]}}, {"type": "Feature", "properties": {"block": "Gudma", "nuid": "CRO-23394-2017", "source": "gdb", "borehole": "GSU-31", "collar_rl_m": NaN, "total_depth_m": NaN, "toposheet": "64C/05", "source_rl": NaN}, "geometry": {"type": "Point", "coordinates": [80.44821184700004, 21.969440605000045]}}]}