{"type":"FeatureCollection","name":"training_labels","crs":{"type":"name","properties":{"name":"urn:ogc:def:crs:OGC:1.3:CRS84"}},"note":"Regenerated 2026-09-24 on corrected mine points from known_occurrences.csv. 20 positives per mine (Gaussian jitter ~1km), negatives sampled away from all mines.","features":[
{ "type": "Feature", "properties": { "lat": 21.829499, "lon": 80.232498, "label": 1, "type": "positive", "near_mine": "Balaghat Mine" }, "geometry": { "type": "Point", "coordinates": [ 80.232498, 21.829499 ] } },
{ "type": "Feature", "properties": { "lat": 21.830453, "lon": 80.237823, "label": 1, "type": "positive", "near_mine": "Balaghat Mine" }, "geometry": { "type": "Point", "coordinates": [ 80.237823, 21.830453 ] } },
{ "type": "Feature", "properties": { "lat": 21.836255, "lon": 80.233239, "label": 1, "type": "positive", "near_mine": "Balaghat Mine" }, "geometry": { "type": "Point", "coordinates": [ 80.233239, 21.836255 ] } },
{ "type": "Feature", "properties": { "lat": 21.835401, "lon": 80.237042, "label": 1, "type": "positive", "near_mine": "Balaghat Mine" }, "geometry": { "type": "Point", "coordinates": [ 80.237042, 21.835401 ] } },
{ "type": "Feature", "properties": { "lat": 21.837048, "lon": 80.236337, "label": 1, "type": "positive", "near_mine": "Balaghat Mine" }, "geometry": { "type": "Point", "coordinates": [ 80.236337, 21.837048 ] } },
{ "type": "Feature", "properties": { "lat": 21.834342, "lon": 80.232139, "label": 1, "type": "positive", "near_mine": "Balaghat Mine" }, "geometry": { "type": "Point", "coordinates": [ 80.232139, 21.834342 ] } },
{ "type": "Feature", "properties": { "lat": 21.831223, "lon": 80.229383, "label": 1, "type": "positive", "near_mine": "Balaghat Mine" }, "geometry": { "type": "Point", "coordinates": [ 80.229383, 21.831223 ] } },
{ "type": "Feature", "properties": { "lat": 21.829984, "lon": 80.230987, "label": 1, "type": "positive", "near_mine": "Balaghat Mine" }, "geometry": { "type": "Point", "coordinates": [ 80.230987, 21.829984 ] } },
{ "type": "Feature", "properties": { "lat": 21.830344, "lon": 80.236338, "label": 1, "type": "positive", "near_mine": "Balaghat Mine" }, "geometry": { "type": "Point", "coordinates": [ 80.236338, 21.830344 ] } },
{ "type": "Feature", "properties": { "lat": 21.828407, "lon": 80.235466, "label": 1, "type": "positive", "near_mine": "Balaghat Mine" }, "geometry": { "type": "Point", "coordinates": [ 80.235466, 21.828407 ] } },
{ "type": "Feature", "properties": { "lat": 21.835454, "lon": 80.238103, "label": 1, "type": "positive", "near_mine": "Balaghat Mine" }, "geometry": { "type": "Point", "coordinates": [ 80.238103, 21.835454 ] } },
{ "type": "Feature", "properties": { "lat": 21.829213, "lon": 80.234868, "label": 1, "type": "positive", "near_mine": "Balaghat Mine" }, "geometry": { "type": "Point", "coordinates": [ 80.234868, 21.829213 ] } },
{ "type": "Feature", "properties": { "lat": 21.831050, "lon": 80.231185, "label": 1, "type": "positive", "near_mine": "Balaghat Mine" }, "geometry": { "type": "Point", "coordinates": [ 80.231185, 21.831050 ] } },
{ "type": "Feature", "properties": { "lat": 21.831312, "lon": 80.232098, "label": 1, "type": "positive", "near_mine": "Balaghat Mine" }, "geometry": { "type": "Point", "coordinates": [ 80.232098, 21.831312 ] } },
{ "type": "Feature", "properties": { "lat": 21.829914, "lon": 80.234742, "label": 1, "type": "positive", "near_mine": "Balaghat Mine" }, "geometry": { "type": "Point", "coordinates": [ 80.234742, 21.829914 ] } },
{ "type": "Feature", "properties": { "lat": 21.831639, "lon": 80.233222, "label": 1, "type": "positive", "near_mine": "Balaghat Mine" }, "geometry": { "type": "Point", "coordinates": [ 80.233222, 21.831639 ] } },
{ "type": "Feature", "properties": { "lat": 21.834346, "lon": 80.237007, "label": 1, "type": "positive", "near_mine": "Balaghat Mine" }, "geometry": { "type": "Point", "coordinates": [ 80.237007, 21.834346 ] } },
{ "type": "Feature", "properties": { "lat": 21.834552, "lon": 80.232311, "label": 1, "type": "positive", "near_mine": "Balaghat Mine" }, "geometry": { "type": "Point", "coordinates": [ 80.232311, 21.834552 ] } },
{ "type": "Feature", "properties": { "lat": 21.829668, "lon": 80.236318, "label": 1, "type": "positive", "near_mine": "Balaghat Mine" }, "geometry": { "type": "Point", "coordinates": [ 80.236318, 21.829668 ] } },
{ "type": "Feature", "properties": { "lat": 21.836145, "lon": 80.235152, "label": 1, "type": "positive", "near_mine": "Balaghat Mine" }, "geometry": { "type": "Point", "coordinates": [ 80.235152, 21.836145 ] } },
{ "type": "Feature", "properties": { "lat": 21.841284, "lon": 80.231553, "label": 1, "type": "positive", "near_mine": "Bharweli Mine" }, "geometry": { "type": "Point", "coordinates": [ 80.231553, 21.841284 ] } },
{ "type": "Feature", "properties": { "lat": 21.841721, "lon": 80.235368, "label": 1, "type": "positive", "near_mine": "Bharweli Mine" }, "geometry": { "type": "Point", "coordinates": [ 80.235368, 21.841721 ] } },
{ "type": "Feature", "properties": { "lat": 21.839363, "lon": 80.228088, "label": 1, "type": "positive", "near_mine": "Bharweli Mine" }, "geometry": { "type": "Point", "coordinates": [ 80.228088, 21.839363 ] } },
{ "type": "Feature", "properties": { "lat": 21.837227, "lon": 80.235831, "label": 1, "type": "positive", "near_mine": "Bharweli Mine" }, "geometry": { "type": "Point", "coordinates": [ 80.235831, 21.837227 ] } },
{ "type": "Feature", "properties": { "lat": 21.838451, "lon": 80.232490, "label": 1, "type": "positive", "near_mine": "Bharweli Mine" }, "geometry": { "type": "Point", "coordinates": [ 80.232490, 21.838451 ] } },
{ "type": "Feature", "properties": { "lat": 21.836077, "lon": 80.233677, "label": 1, "type": "positive", "near_mine": "Bharweli Mine" }, "geometry": { "type": "Point", "coordinates": [ 80.233677, 21.836077 ] } },
{ "type": "Feature", "properties": { "lat": 21.844092, "lon": 80.227236, "label": 1, "type": "positive", "near_mine": "Bharweli Mine" }, "geometry": { "type": "Point", "coordinates": [ 80.227236, 21.844092 ] } },
{ "type": "Feature", "properties": { "lat": 21.842376, "lon": 80.235034, "label": 1, "type": "positive", "near_mine": "Bharweli Mine" }, "geometry": { "type": "Point", "coordinates": [ 80.235034, 21.842376 ] } },
{ "type": "Feature", "properties": { "lat": 21.841546, "lon": 80.232347, "label": 1, "type": "positive", "near_mine": "Bharweli Mine" }, "geometry": { "type": "Point", "coordinates": [ 80.232347, 21.841546 ] } },
{ "type": "Feature", "properties": { "lat": 21.841963, "lon": 80.231462, "label": 1, "type": "positive", "near_mine": "Bharweli Mine" }, "geometry": { "type": "Point", "coordinates": [ 80.231462, 21.841963 ] } },
{ "type": "Feature", "properties": { "lat": 21.836318, "lon": 80.232208, "label": 1, "type": "positive", "near_mine": "Bharweli Mine" }, "geometry": { "type": "Point", "coordinates": [ 80.232208, 21.836318 ] } },
{ "type": "Feature", "properties": { "lat": 21.839849, "lon": 80.230542, "label": 1, "type": "positive", "near_mine": "Bharweli Mine" }, "geometry": { "type": "Point", "coordinates": [ 80.230542, 21.839849 ] } },
{ "type": "Feature", "properties": { "lat": 21.841513, "lon": 80.228229, "label": 1, "type": "positive", "near_mine": "Bharweli Mine" }, "geometry": { "type": "Point", "coordinates": [ 80.228229, 21.841513 ] } },
{ "type": "Feature", "properties": { "lat": 21.838954, "lon": 80.235680, "label": 1, "type": "positive", "near_mine": "Bharweli Mine" }, "geometry": { "type": "Point", "coordinates": [ 80.235680, 21.838954 ] } },
{ "type": "Feature", "properties": { "lat": 21.840506, "lon": 80.231896, "label": 1, "type": "positive", "near_mine": "Bharweli Mine" }, "geometry": { "type": "Point", "coordinates": [ 80.231896, 21.840506 ] } },
{ "type": "Feature", "properties": { "lat": 21.836951, "lon": 80.226748, "label": 1, "type": "positive", "near_mine": "Bharweli Mine" }, "geometry": { "type": "Point", "coordinates": [ 80.226748, 21.836951 ] } },
{ "type": "Feature", "properties": { "lat": 21.842139, "lon": 80.231104, "label": 1, "type": "positive", "near_mine": "Bharweli Mine" }, "geometry": { "type": "Point", "coordinates": [ 80.231104, 21.842139 ] } },
{ "type": "Feature", "properties": { "lat": 21.841925, "lon": 80.228899, "label": 1, "type": "positive", "near_mine": "Bharweli Mine" }, "geometry": { "type": "Point", "coordinates": [ 80.228899, 21.841925 ] } },
{ "type": "Feature", "properties": { "lat": 21.839844, "lon": 80.232945, "label": 1, "type": "positive", "near_mine": "Bharweli Mine" }, "geometry": { "type": "Point", "coordinates": [ 80.232945, 21.839844 ] } },
{ "type": "Feature", "properties": { "lat": 21.842377, "lon": 80.233193, "label": 1, "type": "positive", "near_mine": "Bharweli Mine" }, "geometry": { "type": "Point", "coordinates": [ 80.233193, 21.842377 ] } },
{ "type": "Feature", "properties": { "lat": 21.973932, "lon": 80.469790, "label": 1, "type": "positive", "near_mine": "Ukwa Mine" }, "geometry": { "type": "Point", "coordinates": [ 80.469790, 21.973932 ] } },
{ "type": "Feature", "properties": { "lat": 21.965950, "lon": 80.469491, "label": 1, "type": "positive", "near_mine": "Ukwa Mine" }, "geometry": { "type": "Point", "coordinates": [ 80.469491, 21.965950 ] } },
{ "type": "Feature", "properties": { "lat": 21.966044, "lon": 80.473615, "label": 1, "type": "positive", "near_mine": "Ukwa Mine" }, "geometry": { "type": "Point", "coordinates": [ 80.473615, 21.966044 ] } },
{ "type": "Feature", "properties": { "lat": 21.970101, "lon": 80.473334, "label": 1, "type": "positive", "near_mine": "Ukwa Mine" }, "geometry": { "type": "Point", "coordinates": [ 80.473334, 21.970101 ] } },
{ "type": "Feature", "properties": { "lat": 21.973208, "lon": 80.472418, "label": 1, "type": "positive", "near_mine": "Ukwa Mine" }, "geometry": { "type": "Point", "coordinates": [ 80.472418, 21.973208 ] } },
{ "type": "Feature", "properties": { "lat": 21.969475, "lon": 80.471560, "label": 1, "type": "positive", "near_mine": "Ukwa Mine" }, "geometry": { "type": "Point", "coordinates": [ 80.471560, 21.969475 ] } },
{ "type": "Feature", "properties": { "lat": 21.970048, "lon": 80.467921, "label": 1, "type": "positive", "near_mine": "Ukwa Mine" }, "geometry": { "type": "Point", "coordinates": [ 80.467921, 21.970048 ] } },
{ "type": "Feature", "properties": { "lat": 21.966571, "lon": 80.474658, "label": 1, "type": "positive", "near_mine": "Ukwa Mine" }, "geometry": { "type": "Point", "coordinates": [ 80.474658, 21.966571 ] } },
{ "type": "Feature", "properties": { "lat": 21.972735, "lon": 80.465883, "label": 1, "type": "positive", "near_mine": "Ukwa Mine" }, "geometry": { "type": "Point", "coordinates": [ 80.465883, 21.972735 ] } },
{ "type": "Feature", "properties": { "lat": 21.970044, "lon": 80.465893, "label": 1, "type": "positive", "near_mine": "Ukwa Mine" }, "geometry": { "type": "Point", "coordinates": [ 80.465893, 21.970044 ] } },
{ "type": "Feature", "properties": { "lat": 21.972241, "lon": 80.465980, "label": 1, "type": "positive", "near_mine": "Ukwa Mine" }, "geometry": { "type": "Point", "coordinates": [ 80.465980, 21.972241 ] } },
{ "type": "Feature", "properties": { "lat": 21.972820, "lon": 80.465125, "label": 1, "type": "positive", "near_mine": "Ukwa Mine" }, "geometry": { "type": "Point", "coordinates": [ 80.465125, 21.972820 ] } },
{ "type": "Feature", "properties": { "lat": 21.967152, "lon": 80.465010, "label": 1, "type": "positive", "near_mine": "Ukwa Mine" }, "geometry": { "type": "Point", "coordinates": [ 80.465010, 21.967152 ] } },
{ "type": "Feature", "properties": { "lat": 21.967794, "lon": 80.470362, "label": 1, "type": "positive", "near_mine": "Ukwa Mine" }, "geometry": { "type": "Point", "coordinates": [ 80.470362, 21.967794 ] } },
{ "type": "Feature", "properties": { "lat": 21.974905, "lon": 80.469963, "label": 1, "type": "positive", "near_mine": "Ukwa Mine" }, "geometry": { "type": "Point", "coordinates": [ 80.469963, 21.974905 ] } },
{ "type": "Feature", "properties": { "lat": 21.965883, "lon": 80.473832, "label": 1, "type": "positive", "near_mine": "Ukwa Mine" }, "geometry": { "type": "Point", "coordinates": [ 80.473832, 21.965883 ] } },
{ "type": "Feature", "properties": { "lat": 21.970375, "lon": 80.467190, "label": 1, "type": "positive", "near_mine": "Ukwa Mine" }, "geometry": { "type": "Point", "coordinates": [ 80.467190, 21.970375 ] } },
{ "type": "Feature", "properties": { "lat": 21.967310, "lon": 80.467204, "label": 1, "type": "positive", "near_mine": "Ukwa Mine" }, "geometry": { "type": "Point", "coordinates": [ 80.467204, 21.967310 ] } },
{ "type": "Feature", "properties": { "lat": 21.968305, "lon": 80.466251, "label": 1, "type": "positive", "near_mine": "Ukwa Mine" }, "geometry": { "type": "Point", "coordinates": [ 80.466251, 21.968305 ] } },
{ "type": "Feature", "properties": { "lat": 21.971120, "lon": 80.466845, "label": 1, "type": "positive", "near_mine": "Ukwa Mine" }, "geometry": { "type": "Point", "coordinates": [ 80.466845, 21.971120 ] } },
{ "type": "Feature", "properties": { "lat": 21.682412, "lon": 79.723358, "label": 1, "type": "positive", "near_mine": "Tirodi Mine" }, "geometry": { "type": "Point", "coordinates": [ 79.723358, 21.682412 ] } },
{ "type": "Feature", "properties": { "lat": 21.688274, "lon": 79.726094, "label": 1, "type": "positive", "near_mine": "Tirodi Mine" }, "geometry": { "type": "Point", "coordinates": [ 79.726094, 21.688274 ] } },
{ "type": "Feature", "properties": { "lat": 21.681793, "lon": 79.722957, "label": 1, "type": "positive", "near_mine": "Tirodi Mine" }, "geometry": { "type": "Point", "coordinates": [ 79.722957, 21.681793 ] } },
{ "type": "Feature", "properties": { "lat": 21.680670, "lon": 79.725115, "label": 1, "type": "positive", "near_mine": "Tirodi Mine" }, "geometry": { "type": "Point", "coordinates": [ 79.725115, 21.680670 ] } },
{ "type": "Feature", "properties": { "lat": 21.688058, "lon": 79.729468, "label": 1, "type": "positive", "near_mine": "Tirodi Mine" }, "geometry": { "type": "Point", "coordinates": [ 79.729468, 21.688058 ] } },
{ "type": "Feature", "properties": { "lat": 21.681789, "lon": 79.723038, "label": 1, "type": "positive", "near_mine": "Tirodi Mine" }, "geometry": { "type": "Point", "coordinates": [ 79.723038, 21.681789 ] } },
{ "type": "Feature", "properties": { "lat": 21.683850, "lon": 79.722374, "label": 1, "type": "positive", "near_mine": "Tirodi Mine" }, "geometry": { "type": "Point", "coordinates": [ 79.722374, 21.683850 ] } },
{ "type": "Feature", "properties": { "lat": 21.679799, "lon": 79.722115, "label": 1, "type": "positive", "near_mine": "Tirodi Mine" }, "geometry": { "type": "Point", "coordinates": [ 79.722115, 21.679799 ] } },
{ "type": "Feature", "properties": { "lat": 21.686107, "lon": 79.729762, "label": 1, "type": "positive", "near_mine": "Tirodi Mine" }, "geometry": { "type": "Point", "coordinates": [ 79.729762, 21.686107 ] } },
{ "type": "Feature", "properties": { "lat": 21.685840, "lon": 79.724595, "label": 1, "type": "positive", "near_mine": "Tirodi Mine" }, "geometry": { "type": "Point", "coordinates": [ 79.724595, 21.685840 ] } },
{ "type": "Feature", "properties": { "lat": 21.688051, "lon": 79.725678, "label": 1, "type": "positive", "near_mine": "Tirodi Mine" }, "geometry": { "type": "Point", "coordinates": [ 79.725678, 21.688051 ] } },
{ "type": "Feature", "properties": { "lat": 21.681293, "lon": 79.730770, "label": 1, "type": "positive", "near_mine": "Tirodi Mine" }, "geometry": { "type": "Point", "coordinates": [ 79.730770, 21.681293 ] } },
{ "type": "Feature", "properties": { "lat": 21.685085, "lon": 79.729616, "label": 1, "type": "positive", "near_mine": "Tirodi Mine" }, "geometry": { "type": "Point", "coordinates": [ 79.729616, 21.685085 ] } },
{ "type": "Feature", "properties": { "lat": 21.679270, "lon": 79.725659, "label": 1, "type": "positive", "near_mine": "Tirodi Mine" }, "geometry": { "type": "Point", "coordinates": [ 79.725659, 21.679270 ] } },
{ "type": "Feature", "properties": { "lat": 21.681972, "lon": 79.725983, "label": 1, "type": "positive", "near_mine": "Tirodi Mine" }, "geometry": { "type": "Point", "coordinates": [ 79.725983, 21.681972 ] } },
{ "type": "Feature", "properties": { "lat": 21.686826, "lon": 79.723138, "label": 1, "type": "positive", "near_mine": "Tirodi Mine" }, "geometry": { "type": "Point", "coordinates": [ 79.723138, 21.686826 ] } },
{ "type": "Feature", "properties": { "lat": 21.683613, "lon": 79.726089, "label": 1, "type": "positive", "near_mine": "Tirodi Mine" }, "geometry": { "type": "Point", "coordinates": [ 79.726089, 21.683613 ] } },
{ "type": "Feature", "properties": { "lat": 21.686303, "lon": 79.728287, "label": 1, "type": "positive", "near_mine": "Tirodi Mine" }, "geometry": { "type": "Point", "coordinates": [ 79.728287, 21.686303 ] } },
{ "type": "Feature", "properties": { "lat": 21.684576, "lon": 79.726651, "label": 1, "type": "positive", "near_mine": "Tirodi Mine" }, "geometry": { "type": "Point", "coordinates": [ 79.726651, 21.684576 ] } },
{ "type": "Feature", "properties": { "lat": 21.688658, "lon": 79.725517, "label": 1, "type": "positive", "near_mine": "Tirodi Mine" }, "geometry": { "type": "Point", "coordinates": [ 79.725517, 21.688658 ] } },
{ "type": "Feature", "properties": { "lat": 21.401219, "lon": 79.247939, "label": 1, "type": "positive", "near_mine": "Mansar Mine" }, "geometry": { "type": "Point", "coordinates": [ 79.247939, 21.401219 ] } },
{ "type": "Feature", "properties": { "lat": 21.402422, "lon": 79.247557, "label": 1, "type": "positive", "near_mine": "Mansar Mine" }, "geometry": { "type": "Point", "coordinates": [ 79.247557, 21.402422 ] } },
{ "type": "Feature", "properties": { "lat": 21.402281, "lon": 79.250644, "label": 1, "type": "positive", "near_mine": "Mansar Mine" }, "geometry": { "type": "Point", "coordinates": [ 79.250644, 21.402281 ] } },
{ "type": "Feature", "properties": { "lat": 21.404898, "lon": 79.249041, "label": 1, "type": "positive", "near_mine": "Mansar Mine" }, "geometry": { "type": "Point", "coordinates": [ 79.249041, 21.404898 ] } },
{ "type": "Feature", "properties": { "lat": 21.402192, "lon": 79.252915, "label": 1, "type": "positive", "near_mine": "Mansar Mine" }, "geometry": { "type": "Point", "coordinates": [ 79.252915, 21.402192 ] } },
{ "type": "Feature", "properties": { "lat": 21.401824, "lon": 79.251449, "label": 1, "type": "positive", "near_mine": "Mansar Mine" }, "geometry": { "type": "Point", "coordinates": [ 79.251449, 21.401824 ] } },
{ "type": "Feature", "properties": { "lat": 21.397711, "lon": 79.249452, "label": 1, "type": "positive", "near_mine": "Mansar Mine" }, "geometry": { "type": "Point", "coordinates": [ 79.249452, 21.397711 ] } },
{ "type": "Feature", "properties": { "lat": 21.402815, "lon": 79.253167, "label": 1, "type": "positive", "near_mine": "Mansar Mine" }, "geometry": { "type": "Point", "coordinates": [ 79.253167, 21.402815 ] } },
{ "type": "Feature", "properties": { "lat": 21.399319, "lon": 79.253861, "label": 1, "type": "positive", "near_mine": "Mansar Mine" }, "geometry": { "type": "Point", "coordinates": [ 79.253861, 21.399319 ] } },
{ "type": "Feature", "properties": { "lat": 21.401254, "lon": 79.246435, "label": 1, "type": "positive", "near_mine": "Mansar Mine" }, "geometry": { "type": "Point", "coordinates": [ 79.246435, 21.401254 ] } },
{ "type": "Feature", "properties": { "lat": 21.398861, "lon": 79.253727, "label": 1, "type": "positive", "near_mine": "Mansar Mine" }, "geometry": { "type": "Point", "coordinates": [ 79.253727, 21.398861 ] } },
{ "type": "Feature", "properties": { "lat": 21.398001, "lon": 79.251184, "label": 1, "type": "positive", "near_mine": "Mansar Mine" }, "geometry": { "type": "Point", "coordinates": [ 79.251184, 21.398001 ] } },
{ "type": "Feature", "properties": { "lat": 21.399168, "lon": 79.253855, "label": 1, "type": "positive", "near_mine": "Mansar Mine" }, "geometry": { "type": "Point", "coordinates": [ 79.253855, 21.399168 ] } },
{ "type": "Feature", "properties": { "lat": 21.403942, "lon": 79.254961, "label": 1, "type": "positive", "near_mine": "Mansar Mine" }, "geometry": { "type": "Point", "coordinates": [ 79.254961, 21.403942 ] } },
{ "type": "Feature", "properties": { "lat": 21.402530, "lon": 79.246528, "label": 1, "type": "positive", "near_mine": "Mansar Mine" }, "geometry": { "type": "Point", "coordinates": [ 79.246528, 21.402530 ] } },
{ "type": "Feature", "properties": { "lat": 21.396750, "lon": 79.253767, "label": 1, "type": "positive", "near_mine": "Mansar Mine" }, "geometry": { "type": "Point", "coordinates": [ 79.253767, 21.396750 ] } },
{ "type": "Feature", "properties": { "lat": 21.404225, "lon": 79.253997, "label": 1, "type": "positive", "near_mine": "Mansar Mine" }, "geometry": { "type": "Point", "coordinates": [ 79.253997, 21.404225 ] } },
{ "type": "Feature", "properties": { "lat": 21.396917, "lon": 79.246140, "label": 1, "type": "positive", "near_mine": "Mansar Mine" }, "geometry": { "type": "Point", "coordinates": [ 79.246140, 21.396917 ] } },
{ "type": "Feature", "properties": { "lat": 21.403484, "lon": 79.254687, "label": 1, "type": "positive", "near_mine": "Mansar Mine" }, "geometry": { "type": "Point", "coordinates": [ 79.254687, 21.403484 ] } },
{ "type": "Feature", "properties": { "lat": 21.403094, "lon": 79.254076, "label": 1, "type": "positive", "near_mine": "Mansar Mine" }, "geometry": { "type": "Point", "coordinates": [ 79.254076, 21.403094 ] } },
{ "type": "Feature", "properties": { "lat": 21.552186, "lon": 79.690877, "label": 1, "type": "positive", "near_mine": "DongriBuzurg Mine" }, "geometry": { "type": "Point", "coordinates": [ 79.690877, 21.552186 ] } },
{ "type": "Feature", "properties": { "lat": 21.549658, "lon": 79.693790, "label": 1, "type": "positive", "near_mine": "DongriBuzurg Mine" }, "geometry": { "type": "Point", "coordinates": [ 79.693790, 21.549658 ] } },
{ "type": "Feature", "properties": { "lat": 21.545254, "lon": 79.690271, "label": 1, "type": "positive", "near_mine": "DongriBuzurg Mine" }, "geometry": { "type": "Point", "coordinates": [ 79.690271, 21.545254 ] } },
{ "type": "Feature", "properties": { "lat": 21.548539, "lon": 79.692879, "label": 1, "type": "positive", "near_mine": "DongriBuzurg Mine" }, "geometry": { "type": "Point", "coordinates": [ 79.692879, 21.548539 ] } },
{ "type": "Feature", "properties": { "lat": 21.550316, "lon": 79.691905, "label": 1, "type": "positive", "near_mine": "DongriBuzurg Mine" }, "geometry": { "type": "Point", "coordinates": [ 79.691905, 21.550316 ] } },
{ "type": "Feature", "properties": { "lat": 21.554851, "lon": 79.697822, "label": 1, "type": "positive", "near_mine": "DongriBuzurg Mine" }, "geometry": { "type": "Point", "coordinates": [ 79.697822, 21.554851 ] } },
{ "type": "Feature", "properties": { "lat": 21.553486, "lon": 79.690955, "label": 1, "type": "positive", "near_mine": "DongriBuzurg Mine" }, "geometry": { "type": "Point", "coordinates": [ 79.690955, 21.553486 ] } },
{ "type": "Feature", "properties": { "lat": 21.548953, "lon": 79.691947, "label": 1, "type": "positive", "near_mine": "DongriBuzurg Mine" }, "geometry": { "type": "Point", "coordinates": [ 79.691947, 21.548953 ] } },
{ "type": "Feature", "properties": { "lat": 21.552119, "lon": 79.695698, "label": 1, "type": "positive", "near_mine": "DongriBuzurg Mine" }, "geometry": { "type": "Point", "coordinates": [ 79.695698, 21.552119 ] } },
{ "type": "Feature", "properties": { "lat": 21.550478, "lon": 79.694459, "label": 1, "type": "positive", "near_mine": "DongriBuzurg Mine" }, "geometry": { "type": "Point", "coordinates": [ 79.694459, 21.550478 ] } },
{ "type": "Feature", "properties": { "lat": 21.545552, "lon": 79.695608, "label": 1, "type": "positive", "near_mine": "DongriBuzurg Mine" }, "geometry": { "type": "Point", "coordinates": [ 79.695608, 21.545552 ] } },
{ "type": "Feature", "properties": { "lat": 21.553677, "lon": 79.693112, "label": 1, "type": "positive", "near_mine": "DongriBuzurg Mine" }, "geometry": { "type": "Point", "coordinates": [ 79.693112, 21.553677 ] } },
{ "type": "Feature", "properties": { "lat": 21.545084, "lon": 79.691831, "label": 1, "type": "positive", "near_mine": "DongriBuzurg Mine" }, "geometry": { "type": "Point", "coordinates": [ 79.691831, 21.545084 ] } },
{ "type": "Feature", "properties": { "lat": 21.546661, "lon": 79.697023, "label": 1, "type": "positive", "near_mine": "DongriBuzurg Mine" }, "geometry": { "type": "Point", "coordinates": [ 79.697023, 21.546661 ] } },
{ "type": "Feature", "properties": { "lat": 21.546611, "lon": 79.694288, "label": 1, "type": "positive", "near_mine": "DongriBuzurg Mine" }, "geometry": { "type": "Point", "coordinates": [ 79.694288, 21.546611 ] } },
{ "type": "Feature", "properties": { "lat": 21.554663, "lon": 79.690915, "label": 1, "type": "positive", "near_mine": "DongriBuzurg Mine" }, "geometry": { "type": "Point", "coordinates": [ 79.690915, 21.554663 ] } },
{ "type": "Feature", "properties": { "lat": 21.552603, "lon": 79.696730, "label": 1, "type": "positive", "near_mine": "DongriBuzurg Mine" }, "geometry": { "type": "Point", "coordinates": [ 79.696730, 21.552603 ] } },
{ "type": "Feature", "properties": { "lat": 21.545960, "lon": 79.691784, "label": 1, "type": "positive", "near_mine": "DongriBuzurg Mine" }, "geometry": { "type": "Point", "coordinates": [ 79.691784, 21.545960 ] } },
{ "type": "Feature", "properties": { "lat": 21.549174, "lon": 79.689444, "label": 1, "type": "positive", "near_mine": "DongriBuzurg Mine" }, "geometry": { "type": "Point", "coordinates": [ 79.689444, 21.549174 ] } },
{ "type": "Feature", "properties": { "lat": 21.552031, "lon": 79.694523, "label": 1, "type": "positive", "near_mine": "DongriBuzurg Mine" }, "geometry": { "type": "Point", "coordinates": [ 79.694523, 21.552031 ] } },
{ "type": "Feature", "properties": { "lat": 21.356969, "lon": 80.363847, "label": 0, "type": "negative", "near_mine": null }, "geometry": { "type": "Point", "coordinates": [ 80.363847, 21.356969 ] } },
{ "type": "Feature", "properties": { "lat": 21.662391, "lon": 79.649054, "label": 0, "type": "negative", "near_mine": null }, "geometry": { "type": "Point", "coordinates": [ 79.649054, 21.662391 ] } },
{ "type": "Feature", "properties": { "lat": 21.429327, "lon": 80.003960, "label": 0, "type": "negative", "near_mine": null }, "geometry": { "type": "Point", "coordinates": [ 80.003960, 21.429327 ] } },
{ "type": "Feature", "properties": { "lat": 21.707020, "lon": 79.799159, "label": 0, "type": "negative", "near_mine": null }, "geometry": { "type": "Point", "coordinates": [ 79.799159, 21.707020 ] } },
{ "type": "Feature", "properties": { "lat": 21.187036, "lon": 79.509431, "label": 0, "type": "negative", "near_mine": null }, "geometry": { "type": "Point", "coordinates": [ 79.509431, 21.187036 ] } },
{ "type": "Feature", "properties": { "lat": 21.438282, "lon": 80.000118, "label": 0, "type": "negative", "near_mine": null }, "geometry": { "type": "Point", "coordinates": [ 80.000118, 21.438282 ] } },
{ "type": "Feature", "properties": { "lat": 21.213034, "lon": 80.078541, "label": 0, "type": "negative", "near_mine": null }, "geometry": { "type": "Point", "coordinates": [ 80.078541, 21.213034 ] } },
{ "type": "Feature", "properties": { "lat": 21.924935, "lon": 79.237492, "label": 0, "type": "negative", "near_mine": null }, "geometry": { "type": "Point", "coordinates": [ 79.237492, 21.924935 ] } },
{ "type": "Feature", "properties": { "lat": 21.954185, "lon": 79.548047, "label": 0, "type": "negative", "near_mine": null }, "geometry": { "type": "Point", "coordinates": [ 79.548047, 21.954185 ] } },
{ "type": "Feature", "properties": { "lat": 21.278694, "lon": 79.628050, "label": 0, "type": "negative", "near_mine": null }, "geometry": { "type": "Point", "coordinates": [ 79.628050, 21.278694 ] } },
{ "type": "Feature", "properties": { "lat": 21.793409, "lon": 79.855306, "label": 0, "type": "negative", "near_mine": null }, "geometry": { "type": "Point", "coordinates": [ 79.855306, 21.793409 ] } },
{ "type": "Feature", "properties": { "lat": 21.364552, "lon": 79.543114, "label": 0, "type": "negative", "near_mine": null }, "geometry": { "type": "Point", "coordinates": [ 79.543114, 21.364552 ] } },
{ "type": "Feature", "properties": { "lat": 21.679443, "lon": 79.541665, "label": 0, "type": "negative", "near_mine": null }, "geometry": { "type": "Point", "coordinates": [ 79.541665, 21.679443 ] } },
{ "type": "Feature", "properties": { "lat": 21.183417, "lon": 80.239223, "label": 0, "type": "negative", "near_mine": null }, "geometry": { "type": "Point", "coordinates": [ 80.239223, 21.183417 ] } },
{ "type": "Feature", "properties": { "lat": 21.232711, "lon": 79.616481, "label": 0, "type": "negative", "near_mine": null }, "geometry": { "type": "Point", "coordinates": [ 79.616481, 21.232711 ] } },
{ "type": "Feature", "properties": { "lat": 21.948639, "lon": 79.848964, "label": 0, "type": "negative", "near_mine": null }, "geometry": { "type": "Point", "coordinates": [ 79.848964, 21.948639 ] } },
{ "type": "Feature", "properties": { "lat": 21.304411, "lon": 80.467289, "label": 0, "type": "negative", "near_mine": null }, "geometry": { "type": "Point", "coordinates": [ 80.467289, 21.304411 ] } },
{ "type": "Feature", "properties": { "lat": 21.215316, "lon": 80.101039, "label": 0, "type": "negative", "near_mine": null }, "geometry": { "type": "Point", "coordinates": [ 80.101039, 21.215316 ] } },
{ "type": "Feature", "properties": { "lat": 21.678353, "lon": 79.997866, "label": 0, "type": "negative", "near_mine": null }, "geometry": { "type": "Point", "coordinates": [ 79.997866, 21.678353 ] } },
{ "type": "Feature", "properties": { "lat": 21.900676, "lon": 79.258865, "label": 0, "type": "negative", "near_mine": null }, "geometry": { "type": "Point", "coordinates": [ 79.258865, 21.900676 ] } },
{ "type": "Feature", "properties": { "lat": 21.111931, "lon": 80.481664, "label": 0, "type": "negative", "near_mine": null }, "geometry": { "type": "Point", "coordinates": [ 80.481664, 21.111931 ] } },
{ "type": "Feature", "properties": { "lat": 21.324006, "lon": 79.256937, "label": 0, "type": "negative", "near_mine": null }, "geometry": { "type": "Point", "coordinates": [ 79.256937, 21.324006 ] } },
{ "type": "Feature", "properties": { "lat": 21.836498, "lon": 79.630831, "label": 0, "type": "negative", "near_mine": null }, "geometry": { "type": "Point", "coordinates": [ 79.630831, 21.836498 ] } },
{ "type": "Feature", "properties": { "lat": 21.890494, "lon": 80.185533, "label": 0, "type": "negative", "near_mine": null }, "geometry": { "type": "Point", "coordinates": [ 80.185533, 21.890494 ] } },
{ "type": "Feature", "properties": { "lat": 21.183007, "lon": 80.215703, "label": 0, "type": "negative", "near_mine": null }, "geometry": { "type": "Point", "coordinates": [ 80.215703, 21.183007 ] } },
{ "type": "Feature", "properties": { "lat": 21.803515, "lon": 80.076838, "label": 0, "type": "negative", "near_mine": null }, "geometry": { "type": "Point", "coordinates": [ 80.076838, 21.803515 ] } },
{ "type": "Feature", "properties": { "lat": 21.263640, "lon": 80.268194, "label": 0, "type": "negative", "near_mine": null }, "geometry": { "type": "Point", "coordinates": [ 80.268194, 21.263640 ] } },
{ "type": "Feature", "properties": { "lat": 21.886677, "lon": 79.964661, "label": 0, "type": "negative", "near_mine": null }, "geometry": { "type": "Point", "coordinates": [ 79.964661, 21.886677 ] } },
{ "type": "Feature", "properties": { "lat": 21.378965, "lon": 79.734804, "label": 0, "type": "negative", "near_mine": null }, "geometry": { "type": "Point", "coordinates": [ 79.734804, 21.378965 ] } },
{ "type": "Feature", "properties": { "lat": 21.947004, "lon": 79.235134, "label": 0, "type": "negative", "near_mine": null }, "geometry": { "type": "Point", "coordinates": [ 79.235134, 21.947004 ] } },
{ "type": "Feature", "properties": { "lat": 21.940516, "lon": 80.250022, "label": 0, "type": "negative", "near_mine": null }, "geometry": { "type": "Point", "coordinates": [ 80.250022, 21.940516 ] } },
{ "type": "Feature", "properties": { "lat": 21.549517, "lon": 79.773092, "label": 0, "type": "negative", "near_mine": null }, "geometry": { "type": "Point", "coordinates": [ 79.773092, 21.549517 ] } },
{ "type": "Feature", "properties": { "lat": 21.346086, "lon": 79.908206, "label": 0, "type": "negative", "near_mine": null }, "geometry": { "type": "Point", "coordinates": [ 79.908206, 21.346086 ] } },
{ "type": "Feature", "properties": { "lat": 21.897793, "lon": 79.846063, "label": 0, "type": "negative", "near_mine": null }, "geometry": { "type": "Point", "coordinates": [ 79.846063, 21.897793 ] } },
{ "type": "Feature", "properties": { "lat": 21.452955, "lon": 79.830383, "label": 0, "type": "negative", "near_mine": null }, "geometry": { "type": "Point", "coordinates": [ 79.830383, 21.452955 ] } },
{ "type": "Feature", "properties": { "lat": 21.233052, "lon": 79.253840, "label": 0, "type": "negative", "near_mine": null }, "geometry": { "type": "Point", "coordinates": [ 79.253840, 21.233052 ] } },
{ "type": "Feature", "properties": { "lat": 21.872175, "lon": 79.997065, "label": 0, "type": "negative", "near_mine": null }, "geometry": { "type": "Point", "coordinates": [ 79.997065, 21.872175 ] } },
{ "type": "Feature", "properties": { "lat": 21.783503, "lon": 79.335231, "label": 0, "type": "negative", "near_mine": null }, "geometry": { "type": "Point", "coordinates": [ 79.335231, 21.783503 ] } },
{ "type": "Feature", "properties": { "lat": 21.241763, "lon": 79.458765, "label": 0, "type": "negative", "near_mine": null }, "geometry": { "type": "Point", "coordinates": [ 79.458765, 21.241763 ] } },
{ "type": "Feature", "properties": { "lat": 21.691572, "lon": 80.397310, "label": 0, "type": "negative", "near_mine": null }, "geometry": { "type": "Point", "coordinates": [ 80.397310, 21.691572 ] } },
{ "type": "Feature", "properties": { "lat": 21.705929, "lon": 79.301880, "label": 0, "type": "negative", "near_mine": null }, "geometry": { "type": "Point", "coordinates": [ 79.301880, 21.705929 ] } },
{ "type": "Feature", "properties": { "lat": 21.818165, "lon": 79.688646, "label": 0, "type": "negative", "near_mine": null }, "geometry": { "type": "Point", "coordinates": [ 79.688646, 21.818165 ] } },
{ "type": "Feature", "properties": { "lat": 21.400210, "lon": 79.449853, "label": 0, "type": "negative", "near_mine": null }, "geometry": { "type": "Point", "coordinates": [ 79.449853, 21.400210 ] } },
{ "type": "Feature", "properties": { "lat": 21.792828, "lon": 79.855439, "label": 0, "type": "negative", "near_mine": null }, "geometry": { "type": "Point", "coordinates": [ 79.855439, 21.792828 ] } },
{ "type": "Feature", "properties": { "lat": 21.302504, "lon": 80.317971, "label": 0, "type": "negative", "near_mine": null }, "geometry": { "type": "Point", "coordinates": [ 80.317971, 21.302504 ] } },
{ "type": "Feature", "properties": { "lat": 21.794987, "lon": 79.916562, "label": 0, "type": "negative", "near_mine": null }, "geometry": { "type": "Point", "coordinates": [ 79.916562, 21.794987 ] } },
{ "type": "Feature", "properties": { "lat": 21.350325, "lon": 79.855758, "label": 0, "type": "negative", "near_mine": null }, "geometry": { "type": "Point", "coordinates": [ 79.855758, 21.350325 ] } },
{ "type": "Feature", "properties": { "lat": 21.205043, "lon": 80.433741, "label": 0, "type": "negative", "near_mine": null }, "geometry": { "type": "Point", "coordinates": [ 80.433741, 21.205043 ] } },
{ "type": "Feature", "properties": { "lat": 21.474285, "lon": 80.312782, "label": 0, "type": "negative", "near_mine": null }, "geometry": { "type": "Point", "coordinates": [ 80.312782, 21.474285 ] } },
{ "type": "Feature", "properties": { "lat": 21.694857, "lon": 80.141740, "label": 0, "type": "negative", "near_mine": null }, "geometry": { "type": "Point", "coordinates": [ 80.141740, 21.694857 ] } },
{ "type": "Feature", "properties": { "lat": 21.485030, "lon": 79.579255, "label": 0, "type": "negative", "near_mine": null }, "geometry": { "type": "Point", "coordinates": [ 79.579255, 21.485030 ] } },
{ "type": "Feature", "properties": { "lat": 21.865804, "lon": 79.927330, "label": 0, "type": "negative", "near_mine": null }, "geometry": { "type": "Point", "coordinates": [ 79.927330, 21.865804 ] } },
{ "type": "Feature", "properties": { "lat": 21.293046, "lon": 80.378516, "label": 0, "type": "negative", "near_mine": null }, "geometry": { "type": "Point", "coordinates": [ 80.378516, 21.293046 ] } },
{ "type": "Feature", "properties": { "lat": 21.266862, "lon": 80.419631, "label": 0, "type": "negative", "near_mine": null }, "geometry": { "type": "Point", "coordinates": [ 80.419631, 21.266862 ] } },
{ "type": "Feature", "properties": { "lat": 21.557570, "lon": 80.204961, "label": 0, "type": "negative", "near_mine": null }, "geometry": { "type": "Point", "coordinates": [ 80.204961, 21.557570 ] } },
{ "type": "Feature", "properties": { "lat": 21.400829, "lon": 79.919303, "label": 0, "type": "negative", "near_mine": null }, "geometry": { "type": "Point", "coordinates": [ 79.919303, 21.400829 ] } },
{ "type": "Feature", "properties": { "lat": 21.819225, "lon": 80.471690, "label": 0, "type": "negative", "near_mine": null }, "geometry": { "type": "Point", "coordinates": [ 80.471690, 21.819225 ] } },
{ "type": "Feature", "properties": { "lat": 21.368822, "lon": 79.919021, "label": 0, "type": "negative", "near_mine": null }, "geometry": { "type": "Point", "coordinates": [ 79.919021, 21.368822 ] } },
{ "type": "Feature", "properties": { "lat": 21.203111, "lon": 80.002132, "label": 0, "type": "negative", "near_mine": null }, "geometry": { "type": "Point", "coordinates": [ 80.002132, 21.203111 ] } },
{ "type": "Feature", "properties": { "lat": 21.191374, "lon": 80.351993, "label": 0, "type": "negative", "near_mine": null }, "geometry": { "type": "Point", "coordinates": [ 80.351993, 21.191374 ] } },
{ "type": "Feature", "properties": { "lat": 21.464050, "lon": 79.262589, "label": 0, "type": "negative", "near_mine": null }, "geometry": { "type": "Point", "coordinates": [ 79.262589, 21.464050 ] } },
{ "type": "Feature", "properties": { "lat": 21.269269, "lon": 79.606415, "label": 0, "type": "negative", "near_mine": null }, "geometry": { "type": "Point", "coordinates": [ 79.606415, 21.269269 ] } },
{ "type": "Feature", "properties": { "lat": 21.538399, "lon": 79.462143, "label": 0, "type": "negative", "near_mine": null }, "geometry": { "type": "Point", "coordinates": [ 79.462143, 21.538399 ] } },
{ "type": "Feature", "properties": { "lat": 21.721030, "lon": 80.429712, "label": 0, "type": "negative", "near_mine": null }, "geometry": { "type": "Point", "coordinates": [ 80.429712, 21.721030 ] } },
{ "type": "Feature", "properties": { "lat": 21.352389, "lon": 80.439345, "label": 0, "type": "negative", "near_mine": null }, "geometry": { "type": "Point", "coordinates": [ 80.439345, 21.352389 ] } },
{ "type": "Feature", "properties": { "lat": 21.733011, "lon": 79.674908, "label": 0, "type": "negative", "near_mine": null }, "geometry": { "type": "Point", "coordinates": [ 79.674908, 21.733011 ] } },
{ "type": "Feature", "properties": { "lat": 21.568229, "lon": 79.646610, "label": 0, "type": "negative", "near_mine": null }, "geometry": { "type": "Point", "coordinates": [ 79.646610, 21.568229 ] } },
{ "type": "Feature", "properties": { "lat": 21.399382, "lon": 79.414851, "label": 0, "type": "negative", "near_mine": null }, "geometry": { "type": "Point", "coordinates": [ 79.414851, 21.399382 ] } },
{ "type": "Feature", "properties": { "lat": 21.466616, "lon": 79.703395, "label": 0, "type": "negative", "near_mine": null }, "geometry": { "type": "Point", "coordinates": [ 79.703395, 21.466616 ] } },
{ "type": "Feature", "properties": { "lat": 21.130484, "lon": 79.884763, "label": 0, "type": "negative", "near_mine": null }, "geometry": { "type": "Point", "coordinates": [ 79.884763, 21.130484 ] } },
{ "type": "Feature", "properties": { "lat": 21.340638, "lon": 80.495591, "label": 0, "type": "negative", "near_mine": null }, "geometry": { "type": "Point", "coordinates": [ 80.495591, 21.340638 ] } },
{ "type": "Feature", "properties": { "lat": 21.921204, "lon": 79.374901, "label": 0, "type": "negative", "near_mine": null }, "geometry": { "type": "Point", "coordinates": [ 79.374901, 21.921204 ] } },
{ "type": "Feature", "properties": { "lat": 21.512629, "lon": 80.312084, "label": 0, "type": "negative", "near_mine": null }, "geometry": { "type": "Point", "coordinates": [ 80.312084, 21.512629 ] } },
{ "type": "Feature", "properties": { "lat": 21.305287, "lon": 79.419485, "label": 0, "type": "negative", "near_mine": null }, "geometry": { "type": "Point", "coordinates": [ 79.419485, 21.305287 ] } },
{ "type": "Feature", "properties": { "lat": 21.804637, "lon": 80.113274, "label": 0, "type": "negative", "near_mine": null }, "geometry": { "type": "Point", "coordinates": [ 80.113274, 21.804637 ] } },
{ "type": "Feature", "properties": { "lat": 21.134940, "lon": 79.400680, "label": 0, "type": "negative", "near_mine": null }, "geometry": { "type": "Point", "coordinates": [ 79.400680, 21.134940 ] } },
{ "type": "Feature", "properties": { "lat": 21.416807, "lon": 79.460213, "label": 0, "type": "negative", "near_mine": null }, "geometry": { "type": "Point", "coordinates": [ 79.460213, 21.416807 ] } },
{ "type": "Feature", "properties": { "lat": 21.213026, "lon": 79.510680, "label": 0, "type": "negative", "near_mine": null }, "geometry": { "type": "Point", "coordinates": [ 79.510680, 21.213026 ] } },
{ "type": "Feature", "properties": { "lat": 21.810083, "lon": 79.487196, "label": 0, "type": "negative", "near_mine": null }, "geometry": { "type": "Point", "coordinates": [ 79.487196, 21.810083 ] } },
{ "type": "Feature", "properties": { "lat": 21.993920, "lon": 80.107193, "label": 0, "type": "negative", "near_mine": null }, "geometry": { "type": "Point", "coordinates": [ 80.107193, 21.993920 ] } },
{ "type": "Feature", "properties": { "lat": 21.385932, "lon": 80.304851, "label": 0, "type": "negative", "near_mine": null }, "geometry": { "type": "Point", "coordinates": [ 80.304851, 21.385932 ] } },
{ "type": "Feature", "properties": { "lat": 21.136901, "lon": 80.159302, "label": 0, "type": "negative", "near_mine": null }, "geometry": { "type": "Point", "coordinates": [ 80.159302, 21.136901 ] } },
{ "type": "Feature", "properties": { "lat": 21.966277, "lon": 79.234401, "label": 0, "type": "negative", "near_mine": null }, "geometry": { "type": "Point", "coordinates": [ 79.234401, 21.966277 ] } },
{ "type": "Feature", "properties": { "lat": 21.157012, "lon": 80.254515, "label": 0, "type": "negative", "near_mine": null }, "geometry": { "type": "Point", "coordinates": [ 80.254515, 21.157012 ] } },
{ "type": "Feature", "properties": { "lat": 21.542375, "lon": 79.381645, "label": 0, "type": "negative", "near_mine": null }, "geometry": { "type": "Point", "coordinates": [ 79.381645, 21.542375 ] } },
{ "type": "Feature", "properties": { "lat": 21.953987, "lon": 79.522790, "label": 0, "type": "negative", "near_mine": null }, "geometry": { "type": "Point", "coordinates": [ 79.522790, 21.953987 ] } },
{ "type": "Feature", "properties": { "lat": 21.159302, "lon": 80.170656, "label": 0, "type": "negative", "near_mine": null }, "geometry": { "type": "Point", "coordinates": [ 80.170656, 21.159302 ] } },
{ "type": "Feature", "properties": { "lat": 21.547789, "lon": 79.293290, "label": 0, "type": "negative", "near_mine": null }, "geometry": { "type": "Point", "coordinates": [ 79.293290, 21.547789 ] } },
{ "type": "Feature", "properties": { "lat": 21.580248, "lon": 80.493407, "label": 0, "type": "negative", "near_mine": null }, "geometry": { "type": "Point", "coordinates": [ 80.493407, 21.580248 ] } },
{ "type": "Feature", "properties": { "lat": 21.185815, "lon": 79.277779, "label": 0, "type": "negative", "near_mine": null }, "geometry": { "type": "Point", "coordinates": [ 79.277779, 21.185815 ] } },
{ "type": "Feature", "properties": { "lat": 21.342027, "lon": 80.390034, "label": 0, "type": "negative", "near_mine": null }, "geometry": { "type": "Point", "coordinates": [ 80.390034, 21.342027 ] } },
{ "type": "Feature", "properties": { "lat": 21.686263, "lon": 79.983220, "label": 0, "type": "negative", "near_mine": null }, "geometry": { "type": "Point", "coordinates": [ 79.983220, 21.686263 ] } },
{ "type": "Feature", "properties": { "lat": 21.337978, "lon": 80.342434, "label": 0, "type": "negative", "near_mine": null }, "geometry": { "type": "Point", "coordinates": [ 80.342434, 21.337978 ] } },
{ "type": "Feature", "properties": { "lat": 21.111259, "lon": 79.593169, "label": 0, "type": "negative", "near_mine": null }, "geometry": { "type": "Point", "coordinates": [ 79.593169, 21.111259 ] } },
{ "type": "Feature", "properties": { "lat": 21.391129, "lon": 80.013886, "label": 0, "type": "negative", "near_mine": null }, "geometry": { "type": "Point", "coordinates": [ 80.013886, 21.391129 ] } },
{ "type": "Feature", "properties": { "lat": 21.239806, "lon": 79.354493, "label": 0, "type": "negative", "near_mine": null }, "geometry": { "type": "Point", "coordinates": [ 79.354493, 21.239806 ] } },
{ "type": "Feature", "properties": { "lat": 21.927714, "lon": 80.224264, "label": 0, "type": "negative", "near_mine": null }, "geometry": { "type": "Point", "coordinates": [ 80.224264, 21.927714 ] } },
{ "type": "Feature", "properties": { "lat": 21.526119, "lon": 80.443653, "label": 0, "type": "negative", "near_mine": null }, "geometry": { "type": "Point", "coordinates": [ 80.443653, 21.526119 ] } },
{ "type": "Feature", "properties": { "lat": 21.278400, "lon": 79.823187, "label": 0, "type": "negative", "near_mine": null }, "geometry": { "type": "Point", "coordinates": [ 79.823187, 21.278400 ] } },
{ "type": "Feature", "properties": { "lat": 21.900064, "lon": 80.055770, "label": 0, "type": "negative", "near_mine": null }, "geometry": { "type": "Point", "coordinates": [ 80.055770, 21.900064 ] } },
{ "type": "Feature", "properties": { "lat": 21.722375, "lon": 79.295461, "label": 0, "type": "negative", "near_mine": null }, "geometry": { "type": "Point", "coordinates": [ 79.295461, 21.722375 ] } },
{ "type": "Feature", "properties": { "lat": 21.536419, "lon": 80.120481, "label": 0, "type": "negative", "near_mine": null }, "geometry": { "type": "Point", "coordinates": [ 80.120481, 21.536419 ] } },
{ "type": "Feature", "properties": { "lat": 21.893802, "lon": 79.208188, "label": 0, "type": "negative", "near_mine": null }, "geometry": { "type": "Point", "coordinates": [ 79.208188, 21.893802 ] } },
{ "type": "Feature", "properties": { "lat": 21.721392, "lon": 79.455854, "label": 0, "type": "negative", "near_mine": null }, "geometry": { "type": "Point", "coordinates": [ 79.455854, 21.721392 ] } },
{ "type": "Feature", "properties": { "lat": 21.571422, "lon": 79.397748, "label": 0, "type": "negative", "near_mine": null }, "geometry": { "type": "Point", "coordinates": [ 79.397748, 21.571422 ] } },
{ "type": "Feature", "properties": { "lat": 21.246524, "lon": 79.456045, "label": 0, "type": "negative", "near_mine": null }, "geometry": { "type": "Point", "coordinates": [ 79.456045, 21.246524 ] } },
{ "type": "Feature", "properties": { "lat": 21.320944, "lon": 79.914656, "label": 0, "type": "negative", "near_mine": null }, "geometry": { "type": "Point", "coordinates": [ 79.914656, 21.320944 ] } },
{ "type": "Feature", "properties": { "lat": 21.694195, "lon": 79.475339, "label": 0, "type": "negative", "near_mine": null }, "geometry": { "type": "Point", "coordinates": [ 79.475339, 21.694195 ] } },
{ "type": "Feature", "properties": { "lat": 21.456682, "lon": 79.273850, "label": 0, "type": "negative", "near_mine": null }, "geometry": { "type": "Point", "coordinates": [ 79.273850, 21.456682 ] } },
{ "type": "Feature", "properties": { "lat": 21.285214, "lon": 79.452582, "label": 0, "type": "negative", "near_mine": null }, "geometry": { "type": "Point", "coordinates": [ 79.452582, 21.285214 ] } },
{ "type": "Feature", "properties": { "lat": 21.257783, "lon": 79.951564, "label": 0, "type": "negative", "near_mine": null }, "geometry": { "type": "Point", "coordinates": [ 79.951564, 21.257783 ] } },
{ "type": "Feature", "properties": { "lat": 21.532832, "lon": 80.034539, "label": 0, "type": "negative", "near_mine": null }, "geometry": { "type": "Point", "coordinates": [ 80.034539, 21.532832 ] } },
{ "type": "Feature", "properties": { "lat": 21.827748, "lon": 80.451841, "label": 0, "type": "negative", "near_mine": null }, "geometry": { "type": "Point", "coordinates": [ 80.451841, 21.827748 ] } },
{ "type": "Feature", "properties": { "lat": 21.374707, "lon": 79.681885, "label": 0, "type": "negative", "near_mine": null }, "geometry": { "type": "Point", "coordinates": [ 79.681885, 21.374707 ] } },
{ "type": "Feature", "properties": { "lat": 21.900253, "lon": 80.262228, "label": 0, "type": "negative", "near_mine": null }, "geometry": { "type": "Point", "coordinates": [ 80.262228, 21.900253 ] } },
{ "type": "Feature", "properties": { "lat": 21.801524, "lon": 79.216265, "label": 0, "type": "negative", "near_mine": null }, "geometry": { "type": "Point", "coordinates": [ 79.216265, 21.801524 ] } },
{ "type": "Feature", "properties": { "lat": 21.408992, "lon": 79.916485, "label": 0, "type": "negative", "near_mine": null }, "geometry": { "type": "Point", "coordinates": [ 79.916485, 21.408992 ] } },
{ "type": "Feature", "properties": { "lat": 21.326544, "lon": 80.235859, "label": 0, "type": "negative", "near_mine": null }, "geometry": { "type": "Point", "coordinates": [ 80.235859, 21.326544 ] } },
{ "type": "Feature", "properties": { "lat": 21.728205, "lon": 79.845059, "label": 0, "type": "negative", "near_mine": null }, "geometry": { "type": "Point", "coordinates": [ 79.845059, 21.728205 ] } },
{ "type": "Feature", "properties": { "lat": 21.835286, "lon": 79.244026, "label": 0, "type": "negative", "near_mine": null }, "geometry": { "type": "Point", "coordinates": [ 79.244026, 21.835286 ] } },
{ "type": "Feature", "properties": { "lat": 21.421183, "lon": 80.362309, "label": 0, "type": "negative", "near_mine": null }, "geometry": { "type": "Point", "coordinates": [ 80.362309, 21.421183 ] } },
{ "type": "Feature", "properties": { "lat": 21.981067, "lon": 79.451562, "label": 0, "type": "negative", "near_mine": null }, "geometry": { "type": "Point", "coordinates": [ 79.451562, 21.981067 ] } },
{ "type": "Feature", "properties": { "lat": 21.921774, "lon": 80.331078, "label": 0, "type": "negative", "near_mine": null }, "geometry": { "type": "Point", "coordinates": [ 80.331078, 21.921774 ] } },
{ "type": "Feature", "properties": { "lat": 21.978646, "lon": 79.275933, "label": 0, "type": "negative", "near_mine": null }, "geometry": { "type": "Point", "coordinates": [ 79.275933, 21.978646 ] } },
{ "type": "Feature", "properties": { "lat": 21.546480, "lon": 80.009775, "label": 0, "type": "negative", "near_mine": null }, "geometry": { "type": "Point", "coordinates": [ 80.009775, 21.546480 ] } },
{ "type": "Feature", "properties": { "lat": 21.954602, "lon": 79.280882, "label": 0, "type": "negative", "near_mine": null }, "geometry": { "type": "Point", "coordinates": [ 79.280882, 21.954602 ] } },
{ "type": "Feature", "properties": { "lat": 21.793411, "lon": 79.819242, "label": 0, "type": "negative", "near_mine": null }, "geometry": { "type": "Point", "coordinates": [ 79.819242, 21.793411 ] } },
{ "type": "Feature", "properties": { "lat": 21.643937, "lon": 80.288163, "label": 0, "type": "negative", "near_mine": null }, "geometry": { "type": "Point", "coordinates": [ 80.288163, 21.643937 ] } },
{ "type": "Feature", "properties": { "lat": 21.464086, "lon": 80.154944, "label": 0, "type": "negative", "near_mine": null }, "geometry": { "type": "Point", "coordinates": [ 80.154944, 21.464086 ] } },
{ "type": "Feature", "properties": { "lat": 21.887690, "lon": 80.378483, "label": 0, "type": "negative", "near_mine": null }, "geometry": { "type": "Point", "coordinates": [ 80.378483, 21.887690 ] } },
{ "type": "Feature", "properties": { "lat": 21.625247, "lon": 79.250771, "label": 0, "type": "negative", "near_mine": null }, "geometry": { "type": "Point", "coordinates": [ 79.250771, 21.625247 ] } },
{ "type": "Feature", "properties": { "lat": 21.451276, "lon": 79.423103, "label": 0, "type": "negative", "near_mine": null }, "geometry": { "type": "Point", "coordinates": [ 79.423103, 21.451276 ] } },
{ "type": "Feature", "properties": { "lat": 21.157311, "lon": 80.076708, "label": 0, "type": "negative", "near_mine": null }, "geometry": { "type": "Point", "coordinates": [ 80.076708, 21.157311 ] } },
{ "type": "Feature", "properties": { "lat": 21.525289, "lon": 80.394665, "label": 0, "type": "negative", "near_mine": null }, "geometry": { "type": "Point", "coordinates": [ 80.394665, 21.525289 ] } },
{ "type": "Feature", "properties": { "lat": 21.315092, "lon": 80.115923, "label": 0, "type": "negative", "near_mine": null }, "geometry": { "type": "Point", "coordinates": [ 80.115923, 21.315092 ] } },
{ "type": "Feature", "properties": { "lat": 21.763480, "lon": 79.413614, "label": 0, "type": "negative", "near_mine": null }, "geometry": { "type": "Point", "coordinates": [ 79.413614, 21.763480 ] } },
{ "type": "Feature", "properties": { "lat": 21.387877, "lon": 79.556872, "label": 0, "type": "negative", "near_mine": null }, "geometry": { "type": "Point", "coordinates": [ 79.556872, 21.387877 ] } },
{ "type": "Feature", "properties": { "lat": 21.746177, "lon": 80.363487, "label": 0, "type": "negative", "near_mine": null }, "geometry": { "type": "Point", "coordinates": [ 80.363487, 21.746177 ] } },
{ "type": "Feature", "properties": { "lat": 21.655629, "lon": 79.942097, "label": 0, "type": "negative", "near_mine": null }, "geometry": { "type": "Point", "coordinates": [ 79.942097, 21.655629 ] } },
{ "type": "Feature", "properties": { "lat": 21.694170, "lon": 80.072549, "label": 0, "type": "negative", "near_mine": null }, "geometry": { "type": "Point", "coordinates": [ 80.072549, 21.694170 ] } },
{ "type": "Feature", "properties": { "lat": 21.725382, "lon": 80.073661, "label": 0, "type": "negative", "near_mine": null }, "geometry": { "type": "Point", "coordinates": [ 80.073661, 21.725382 ] } },
{ "type": "Feature", "properties": { "lat": 21.316513, "lon": 79.709031, "label": 0, "type": "negative", "near_mine": null }, "geometry": { "type": "Point", "coordinates": [ 79.709031, 21.316513 ] } },
{ "type": "Feature", "properties": { "lat": 21.967232, "lon": 80.275558, "label": 0, "type": "negative", "near_mine": null }, "geometry": { "type": "Point", "coordinates": [ 80.275558, 21.967232 ] } },
{ "type": "Feature", "properties": { "lat": 21.762506, "lon": 79.588557, "label": 0, "type": "negative", "near_mine": null }, "geometry": { "type": "Point", "coordinates": [ 79.588557, 21.762506 ] } },
{ "type": "Feature", "properties": { "lat": 21.376652, "lon": 79.331835, "label": 0, "type": "negative", "near_mine": null }, "geometry": { "type": "Point", "coordinates": [ 79.331835, 21.376652 ] } },
{ "type": "Feature", "properties": { "lat": 21.282041, "lon": 80.366362, "label": 0, "type": "negative", "near_mine": null }, "geometry": { "type": "Point", "coordinates": [ 80.366362, 21.282041 ] } },
{ "type": "Feature", "properties": { "lat": 21.761572, "lon": 79.259558, "label": 0, "type": "negative", "near_mine": null }, "geometry": { "type": "Point", "coordinates": [ 79.259558, 21.761572 ] } },
{ "type": "Feature", "properties": { "lat": 21.694168, "lon": 80.105868, "label": 0, "type": "negative", "near_mine": null }, "geometry": { "type": "Point", "coordinates": [ 80.105868, 21.694168 ] } },
{ "type": "Feature", "properties": { "lat": 21.878575, "lon": 79.568276, "label": 0, "type": "negative", "near_mine": null }, "geometry": { "type": "Point", "coordinates": [ 79.568276, 21.878575 ] } },
{ "type": "Feature", "properties": { "lat": 21.868262, "lon": 80.170666, "label": 0, "type": "negative", "near_mine": null }, "geometry": { "type": "Point", "coordinates": [ 80.170666, 21.868262 ] } },
{ "type": "Feature", "properties": { "lat": 21.621066, "lon": 79.865620, "label": 0, "type": "negative", "near_mine": null }, "geometry": { "type": "Point", "coordinates": [ 79.865620, 21.621066 ] } },
{ "type": "Feature", "properties": { "lat": 21.706453, "lon": 80.384997, "label": 0, "type": "negative", "near_mine": null }, "geometry": { "type": "Point", "coordinates": [ 80.384997, 21.706453 ] } },
{ "type": "Feature", "properties": { "lat": 21.170428, "lon": 79.644051, "label": 0, "type": "negative", "near_mine": null }, "geometry": { "type": "Point", "coordinates": [ 79.644051, 21.170428 ] } },
{ "type": "Feature", "properties": { "lat": 21.173887, "lon": 80.281294, "label": 0, "type": "negative", "near_mine": null }, "geometry": { "type": "Point", "coordinates": [ 80.281294, 21.173887 ] } },
{ "type": "Feature", "properties": { "lat": 21.232939, "lon": 80.430502, "label": 0, "type": "negative", "near_mine": null }, "geometry": { "type": "Point", "coordinates": [ 80.430502, 21.232939 ] } },
{ "type": "Feature", "properties": { "lat": 21.728101, "lon": 79.378561, "label": 0, "type": "negative", "near_mine": null }, "geometry": { "type": "Point", "coordinates": [ 79.378561, 21.728101 ] } },
{ "type": "Feature", "properties": { "lat": 21.673649, "lon": 79.865973, "label": 0, "type": "negative", "near_mine": null }, "geometry": { "type": "Point", "coordinates": [ 79.865973, 21.673649 ] } },
{ "type": "Feature", "properties": { "lat": 21.713131, "lon": 79.200413, "label": 0, "type": "negative", "near_mine": null }, "geometry": { "type": "Point", "coordinates": [ 79.200413, 21.713131 ] } },
{ "type": "Feature", "properties": { "lat": 21.637980, "lon": 79.689711, "label": 0, "type": "negative", "near_mine": null }, "geometry": { "type": "Point", "coordinates": [ 79.689711, 21.637980 ] } },
{ "type": "Feature", "properties": { "lat": 21.675595, "lon": 79.839700, "label": 0, "type": "negative", "near_mine": null }, "geometry": { "type": "Point", "coordinates": [ 79.839700, 21.675595 ] } },
{ "type": "Feature", "properties": { "lat": 21.270911, "lon": 79.223742, "label": 0, "type": "negative", "near_mine": null }, "geometry": { "type": "Point", "coordinates": [ 79.223742, 21.270911 ] } },
{ "type": "Feature", "properties": { "lat": 21.422754, "lon": 79.933380, "label": 0, "type": "negative", "near_mine": null }, "geometry": { "type": "Point", "coordinates": [ 79.933380, 21.422754 ] } },
{ "type": "Feature", "properties": { "lat": 21.159284, "lon": 79.607673, "label": 0, "type": "negative", "near_mine": null }, "geometry": { "type": "Point", "coordinates": [ 79.607673, 21.159284 ] } },
{ "type": "Feature", "properties": { "lat": 21.729344, "lon": 80.371696, "label": 0, "type": "negative", "near_mine": null }, "geometry": { "type": "Point", "coordinates": [ 80.371696, 21.729344 ] } },
{ "type": "Feature", "properties": { "lat": 21.771971, "lon": 79.683443, "label": 0, "type": "negative", "near_mine": null }, "geometry": { "type": "Point", "coordinates": [ 79.683443, 21.771971 ] } },
{ "type": "Feature", "properties": { "lat": 21.160082, "lon": 80.164152, "label": 0, "type": "negative", "near_mine": null }, "geometry": { "type": "Point", "coordinates": [ 80.164152, 21.160082 ] } },
{ "type": "Feature", "properties": { "lat": 21.108325, "lon": 80.090261, "label": 0, "type": "negative", "near_mine": null }, "geometry": { "type": "Point", "coordinates": [ 80.090261, 21.108325 ] } },
{ "type": "Feature", "properties": { "lat": 21.601739, "lon": 80.293440, "label": 0, "type": "negative", "near_mine": null }, "geometry": { "type": "Point", "coordinates": [ 80.293440, 21.601739 ] } },
{ "type": "Feature", "properties": { "lat": 21.478084, "lon": 79.239695, "label": 0, "type": "negative", "near_mine": null }, "geometry": { "type": "Point", "coordinates": [ 79.239695, 21.478084 ] } },
{ "type": "Feature", "properties": { "lat": 21.190101, "lon": 79.660458, "label": 0, "type": "negative", "near_mine": null }, "geometry": { "type": "Point", "coordinates": [ 79.660458, 21.190101 ] } },
{ "type": "Feature", "properties": { "lat": 21.732747, "lon": 79.552123, "label": 0, "type": "negative", "near_mine": null }, "geometry": { "type": "Point", "coordinates": [ 79.552123, 21.732747 ] } },
{ "type": "Feature", "properties": { "lat": 21.944208, "lon": 80.292896, "label": 0, "type": "negative", "near_mine": null }, "geometry": { "type": "Point", "coordinates": [ 80.292896, 21.944208 ] } },
{ "type": "Feature", "properties": { "lat": 21.955281, "lon": 80.335350, "label": 0, "type": "negative", "near_mine": null }, "geometry": { "type": "Point", "coordinates": [ 80.335350, 21.955281 ] } },
{ "type": "Feature", "properties": { "lat": 21.117823, "lon": 79.515707, "label": 0, "type": "negative", "near_mine": null }, "geometry": { "type": "Point", "coordinates": [ 79.515707, 21.117823 ] } },
{ "type": "Feature", "properties": { "lat": 21.986319, "lon": 79.668413, "label": 0, "type": "negative", "near_mine": null }, "geometry": { "type": "Point", "coordinates": [ 79.668413, 21.986319 ] } },
{ "type": "Feature", "properties": { "lat": 21.795798, "lon": 79.604383, "label": 0, "type": "negative", "near_mine": null }, "geometry": { "type": "Point", "coordinates": [ 79.604383, 21.795798 ] } },
{ "type": "Feature", "properties": { "lat": 21.144569, "lon": 79.829808, "label": 0, "type": "negative", "near_mine": null }, "geometry": { "type": "Point", "coordinates": [ 79.829808, 21.144569 ] } },
{ "type": "Feature", "properties": { "lat": 21.623101, "lon": 80.070562, "label": 0, "type": "negative", "near_mine": null }, "geometry": { "type": "Point", "coordinates": [ 80.070562, 21.623101 ] } },
{ "type": "Feature", "properties": { "lat": 21.938705, "lon": 79.639002, "label": 0, "type": "negative", "near_mine": null }, "geometry": { "type": "Point", "coordinates": [ 79.639002, 21.938705 ] } },
{ "type": "Feature", "properties": { "lat": 21.309892, "lon": 79.647688, "label": 0, "type": "negative", "near_mine": null }, "geometry": { "type": "Point", "coordinates": [ 79.647688, 21.309892 ] } },
{ "type": "Feature", "properties": { "lat": 21.298150, "lon": 80.486573, "label": 0, "type": "negative", "near_mine": null }, "geometry": { "type": "Point", "coordinates": [ 80.486573, 21.298150 ] } },
{ "type": "Feature", "properties": { "lat": 21.868098, "lon": 79.853299, "label": 0, "type": "negative", "near_mine": null }, "geometry": { "type": "Point", "coordinates": [ 79.853299, 21.868098 ] } },
{ "type": "Feature", "properties": { "lat": 21.549041, "lon": 79.400463, "label": 0, "type": "negative", "near_mine": null }, "geometry": { "type": "Point", "coordinates": [ 79.400463, 21.549041 ] } },
{ "type": "Feature", "properties": { "lat": 21.600866, "lon": 79.628866, "label": 0, "type": "negative", "near_mine": null }, "geometry": { "type": "Point", "coordinates": [ 79.628866, 21.600866 ] } },
{ "type": "Feature", "properties": { "lat": 21.757469, "lon": 80.411725, "label": 0, "type": "negative", "near_mine": null }, "geometry": { "type": "Point", "coordinates": [ 80.411725, 21.757469 ] } },
{ "type": "Feature", "properties": { "lat": 21.479670, "lon": 79.844865, "label": 0, "type": "negative", "near_mine": null }, "geometry": { "type": "Point", "coordinates": [ 79.844865, 21.479670 ] } },
{ "type": "Feature", "properties": { "lat": 21.651094, "lon": 80.328154, "label": 0, "type": "negative", "near_mine": null }, "geometry": { "type": "Point", "coordinates": [ 80.328154, 21.651094 ] } },
{ "type": "Feature", "properties": { "lat": 21.158629, "lon": 79.442394, "label": 0, "type": "negative", "near_mine": null }, "geometry": { "type": "Point", "coordinates": [ 79.442394, 21.158629 ] } },
{ "type": "Feature", "properties": { "lat": 21.826595, "lon": 80.118937, "label": 0, "type": "negative", "near_mine": null }, "geometry": { "type": "Point", "coordinates": [ 80.118937, 21.826595 ] } },
{ "type": "Feature", "properties": { "lat": 21.893427, "lon": 80.489476, "label": 0, "type": "negative", "near_mine": null }, "geometry": { "type": "Point", "coordinates": [ 80.489476, 21.893427 ] } },
{ "type": "Feature", "properties": { "lat": 21.986122, "lon": 79.987114, "label": 0, "type": "negative", "near_mine": null }, "geometry": { "type": "Point", "coordinates": [ 79.987114, 21.986122 ] } },
{ "type": "Feature", "properties": { "lat": 21.757848, "lon": 79.938893, "label": 0, "type": "negative", "near_mine": null }, "geometry": { "type": "Point", "coordinates": [ 79.938893, 21.757848 ] } },
{ "type": "Feature", "properties": { "lat": 21.444171, "lon": 79.240086, "label": 0, "type": "negative", "near_mine": null }, "geometry": { "type": "Point", "coordinates": [ 79.240086, 21.444171 ] } },
{ "type": "Feature", "properties": { "lat": 21.573754, "lon": 80.455894, "label": 0, "type": "negative", "near_mine": null }, "geometry": { "type": "Point", "coordinates": [ 80.455894, 21.573754 ] } },
{ "type": "Feature", "properties": { "lat": 21.364822, "lon": 79.531435, "label": 0, "type": "negative", "near_mine": null }, "geometry": { "type": "Point", "coordinates": [ 79.531435, 21.364822 ] } },
{ "type": "Feature", "properties": { "lat": 21.462479, "lon": 80.141116, "label": 0, "type": "negative", "near_mine": null }, "geometry": { "type": "Point", "coordinates": [ 80.141116, 21.462479 ] } },
{ "type": "Feature", "properties": { "lat": 21.325898, "lon": 79.944881, "label": 0, "type": "negative", "near_mine": null }, "geometry": { "type": "Point", "coordinates": [ 79.944881, 21.325898 ] } },
{ "type": "Feature", "properties": { "lat": 21.822084, "lon": 80.086904, "label": 0, "type": "negative", "near_mine": null }, "geometry": { "type": "Point", "coordinates": [ 80.086904, 21.822084 ] } },
{ "type": "Feature", "properties": { "lat": 21.177582, "lon": 79.360722, "label": 0, "type": "negative", "near_mine": null }, "geometry": { "type": "Point", "coordinates": [ 79.360722, 21.177582 ] } },
{ "type": "Feature", "properties": { "lat": 21.772474, "lon": 79.964177, "label": 0, "type": "negative", "near_mine": null }, "geometry": { "type": "Point", "coordinates": [ 79.964177, 21.772474 ] } },
{ "type": "Feature", "properties": { "lat": 21.491671, "lon": 79.980185, "label": 0, "type": "negative", "near_mine": null }, "geometry": { "type": "Point", "coordinates": [ 79.980185, 21.491671 ] } },
{ "type": "Feature", "properties": { "lat": 21.927661, "lon": 79.311232, "label": 0, "type": "negative", "near_mine": null }, "geometry": { "type": "Point", "coordinates": [ 79.311232, 21.927661 ] } },
{ "type": "Feature", "properties": { "lat": 21.233619, "lon": 80.316937, "label": 0, "type": "negative", "near_mine": null }, "geometry": { "type": "Point", "coordinates": [ 80.316937, 21.233619 ] } },
{ "type": "Feature", "properties": { "lat": 21.918930, "lon": 80.339754, "label": 0, "type": "negative", "near_mine": null }, "geometry": { "type": "Point", "coordinates": [ 80.339754, 21.918930 ] } },
{ "type": "Feature", "properties": { "lat": 21.461480, "lon": 80.157006, "label": 0, "type": "negative", "near_mine": null }, "geometry": { "type": "Point", "coordinates": [ 80.157006, 21.461480 ] } },
{ "type": "Feature", "properties": { "lat": 21.689695, "lon": 79.300932, "label": 0, "type": "negative", "near_mine": null }, "geometry": { "type": "Point", "coordinates": [ 79.300932, 21.689695 ] } },
{ "type": "Feature", "properties": { "lat": 21.842857, "lon": 80.489121, "label": 0, "type": "negative", "near_mine": null }, "geometry": { "type": "Point", "coordinates": [ 80.489121, 21.842857 ] } },
{ "type": "Feature", "properties": { "lat": 21.188885, "lon": 80.307580, "label": 0, "type": "negative", "near_mine": null }, "geometry": { "type": "Point", "coordinates": [ 80.307580, 21.188885 ] } },
{ "type": "Feature", "properties": { "lat": 21.447867, "lon": 80.381344, "label": 0, "type": "negative", "near_mine": null }, "geometry": { "type": "Point", "coordinates": [ 80.381344, 21.447867 ] } },
{ "type": "Feature", "properties": { "lat": 21.710544, "lon": 79.474801, "label": 0, "type": "negative", "near_mine": null }, "geometry": { "type": "Point", "coordinates": [ 79.474801, 21.710544 ] } },
{ "type": "Feature", "properties": { "lat": 21.632785, "lon": 79.733310, "label": 0, "type": "negative", "near_mine": null }, "geometry": { "type": "Point", "coordinates": [ 79.733310, 21.632785 ] } },
{ "type": "Feature", "properties": { "lat": 21.111111, "lon": 79.971569, "label": 0, "type": "negative", "near_mine": null }, "geometry": { "type": "Point", "coordinates": [ 79.971569, 21.111111 ] } },
{ "type": "Feature", "properties": { "lat": 21.119235, "lon": 80.165467, "label": 0, "type": "negative", "near_mine": null }, "geometry": { "type": "Point", "coordinates": [ 80.165467, 21.119235 ] } },
{ "type": "Feature", "properties": { "lat": 21.693011, "lon": 80.260228, "label": 0, "type": "negative", "near_mine": null }, "geometry": { "type": "Point", "coordinates": [ 80.260228, 21.693011 ] } },
{ "type": "Feature", "properties": { "lat": 21.161618, "lon": 79.434907, "label": 0, "type": "negative", "near_mine": null }, "geometry": { "type": "Point", "coordinates": [ 79.434907, 21.161618 ] } },
{ "type": "Feature", "properties": { "lat": 21.434766, "lon": 80.142397, "label": 0, "type": "negative", "near_mine": null }, "geometry": { "type": "Point", "coordinates": [ 80.142397, 21.434766 ] } },
{ "type": "Feature", "properties": { "lat": 21.263898, "lon": 80.193454, "label": 0, "type": "negative", "near_mine": null }, "geometry": { "type": "Point", "coordinates": [ 80.193454, 21.263898 ] } },
{ "type": "Feature", "properties": { "lat": 21.917033, "lon": 79.779165, "label": 0, "type": "negative", "near_mine": null }, "geometry": { "type": "Point", "coordinates": [ 79.779165, 21.917033 ] } },
{ "type": "Feature", "properties": { "lat": 21.513590, "lon": 80.208686, "label": 0, "type": "negative", "near_mine": null }, "geometry": { "type": "Point", "coordinates": [ 80.208686, 21.513590 ] } },
{ "type": "Feature", "properties": { "lat": 21.397009, "lon": 80.127225, "label": 0, "type": "negative", "near_mine": null }, "geometry": { "type": "Point", "coordinates": [ 80.127225, 21.397009 ] } },
{ "type": "Feature", "properties": { "lat": 21.502171, "lon": 79.495523, "label": 0, "type": "negative", "near_mine": null }, "geometry": { "type": "Point", "coordinates": [ 79.495523, 21.502171 ] } },
{ "type": "Feature", "properties": { "lat": 21.425641, "lon": 80.207713, "label": 0, "type": "negative", "near_mine": null }, "geometry": { "type": "Point", "coordinates": [ 80.207713, 21.425641 ] } },
{ "type": "Feature", "properties": { "lat": 21.820217, "lon": 79.255473, "label": 0, "type": "negative", "near_mine": null }, "geometry": { "type": "Point", "coordinates": [ 79.255473, 21.820217 ] } },
{ "type": "Feature", "properties": { "lat": 21.160686, "lon": 80.147294, "label": 0, "type": "negative", "near_mine": null }, "geometry": { "type": "Point", "coordinates": [ 80.147294, 21.160686 ] } },
{ "type": "Feature", "properties": { "lat": 21.359468, "lon": 80.464413, "label": 0, "type": "negative", "near_mine": null }, "geometry": { "type": "Point", "coordinates": [ 80.464413, 21.359468 ] } },
{ "type": "Feature", "properties": { "lat": 21.585675, "lon": 80.124725, "label": 0, "type": "negative", "near_mine": null }, "geometry": { "type": "Point", "coordinates": [ 80.124725, 21.585675 ] } },
{ "type": "Feature", "properties": { "lat": 21.271178, "lon": 79.667254, "label": 0, "type": "negative", "near_mine": null }, "geometry": { "type": "Point", "coordinates": [ 79.667254, 21.271178 ] } },
{ "type": "Feature", "properties": { "lat": 21.806164, "lon": 80.293861, "label": 0, "type": "negative", "near_mine": null }, "geometry": { "type": "Point", "coordinates": [ 80.293861, 21.806164 ] } },
{ "type": "Feature", "properties": { "lat": 21.496471, "lon": 79.343380, "label": 0, "type": "negative", "near_mine": null }, "geometry": { "type": "Point", "coordinates": [ 79.343380, 21.496471 ] } },
{ "type": "Feature", "properties": { "lat": 21.392442, "lon": 79.394162, "label": 0, "type": "negative", "near_mine": null }, "geometry": { "type": "Point", "coordinates": [ 79.394162, 21.392442 ] } },
{ "type": "Feature", "properties": { "lat": 21.744725, "lon": 79.447183, "label": 0, "type": "negative", "near_mine": null }, "geometry": { "type": "Point", "coordinates": [ 79.447183, 21.744725 ] } },
{ "type": "Feature", "properties": { "lat": 21.591526, "lon": 79.469556, "label": 0, "type": "negative", "near_mine": null }, "geometry": { "type": "Point", "coordinates": [ 79.469556, 21.591526 ] } },
{ "type": "Feature", "properties": { "lat": 21.507462, "lon": 80.184529, "label": 0, "type": "negative", "near_mine": null }, "geometry": { "type": "Point", "coordinates": [ 80.184529, 21.507462 ] } },
{ "type": "Feature", "properties": { "lat": 21.256603, "lon": 79.852984, "label": 0, "type": "negative", "near_mine": null }, "geometry": { "type": "Point", "coordinates": [ 79.852984, 21.256603 ] } },
{ "type": "Feature", "properties": { "lat": 21.180989, "lon": 80.312173, "label": 0, "type": "negative", "near_mine": null }, "geometry": { "type": "Point", "coordinates": [ 80.312173, 21.180989 ] } },
{ "type": "Feature", "properties": { "lat": 21.460456, "lon": 79.678426, "label": 0, "type": "negative", "near_mine": null }, "geometry": { "type": "Point", "coordinates": [ 79.678426, 21.460456 ] } },
{ "type": "Feature", "properties": { "lat": 21.579594, "lon": 79.408115, "label": 0, "type": "negative", "near_mine": null }, "geometry": { "type": "Point", "coordinates": [ 79.408115, 21.579594 ] } },
{ "type": "Feature", "properties": { "lat": 21.407175, "lon": 80.118335, "label": 0, "type": "negative", "near_mine": null }, "geometry": { "type": "Point", "coordinates": [ 80.118335, 21.407175 ] } },
{ "type": "Feature", "properties": { "lat": 21.804593, "lon": 79.217898, "label": 0, "type": "negative", "near_mine": null }, "geometry": { "type": "Point", "coordinates": [ 79.217898, 21.804593 ] } },
{ "type": "Feature", "properties": { "lat": 21.860984, "lon": 79.300238, "label": 0, "type": "negative", "near_mine": null }, "geometry": { "type": "Point", "coordinates": [ 79.300238, 21.860984 ] } }]}
